{"type":"FeatureCollection","features":[{"type":"Feature","properties":{"name":"Forest hill in Saarbrücken","cmt":"","desc":"","type":"Jogging","time":"2025-09-06T02:32:45+02:00","coordTimes":["2025-09-06T04:02:45Z","2025-09-06T04:02:46Z","2025-09-06T04:02:50Z","2025-09-06T04:02:54Z","2025-09-06T04:02:58Z","2025-09-06T04:03:02Z","2025-09-06T04:03:06Z","2025-09-06T04:03:10Z","2025-09-06T04:03:14Z","2025-09-06T04:03:18Z","2025-09-06T04:03:22Z","2025-09-06T04:03:25Z","2025-09-06T04:03:28Z","2025-09-06T04:03:31Z","2025-09-06T04:03:34Z","2025-09-06T04:03:37Z","2025-09-06T04:03:41Z","2025-09-06T04:03:45Z","2025-09-06T04:03:49Z","2025-09-06T04:03:53Z","2025-09-06T04:03:56Z","2025-09-06T04:03:59Z","2025-09-06T04:04:02Z","2025-09-06T04:04:05Z","2025-09-06T04:04:08Z","2025-09-06T04:04:11Z","2025-09-06T04:04:14Z","2025-09-06T04:04:17Z","2025-09-06T04:04:20Z","2025-09-06T04:04:23Z","2025-09-06T04:04:26Z","2025-09-06T04:04:30Z","2025-09-06T04:04:33Z","2025-09-06T04:04:36Z","2025-09-06T04:04:39Z","2025-09-06T04:04:42Z","2025-09-06T04:04:45Z","2025-09-06T04:04:48Z","2025-09-06T04:04:51Z","2025-09-06T04:04:54Z","2025-09-06T04:04:57Z","2025-09-06T04:05:00Z","2025-09-06T04:05:03Z","2025-09-06T04:05:06Z","2025-09-06T04:05:09Z","2025-09-06T04:05:12Z","2025-09-06T04:05:16Z","2025-09-06T04:05:20Z","2025-09-06T04:05:24Z","2025-09-06T04:05:28Z","2025-09-06T04:05:32Z","2025-09-06T04:05:36Z","2025-09-06T04:05:40Z","2025-09-06T04:05:44Z","2025-09-06T04:05:47Z","2025-09-06T04:05:50Z","2025-09-06T04:05:53Z","2025-09-06T04:05:56Z","2025-09-06T04:05:59Z","2025-09-06T04:06:02Z","2025-09-06T04:06:06Z","2025-09-06T04:06:10Z","2025-09-06T04:06:14Z","2025-09-06T04:06:18Z","2025-09-06T04:06:21Z","2025-09-06T04:06:25Z","2025-09-06T04:06:29Z","2025-09-06T04:06:34Z","2025-09-06T04:06:38Z","2025-09-06T04:06:42Z","2025-09-06T04:06:45Z","2025-09-06T04:06:48Z","2025-09-06T04:06:51Z","2025-09-06T04:06:54Z","2025-09-06T04:06:57Z","2025-09-06T04:07:00Z","2025-09-06T04:07:03Z","2025-09-06T04:07:07Z","2025-09-06T04:07:10Z","2025-09-06T04:07:13Z","2025-09-06T04:07:16Z","2025-09-06T04:07:19Z","2025-09-06T04:07:23Z","2025-09-06T04:07:28Z","2025-09-06T04:07:32Z","2025-09-06T04:07:35Z","2025-09-06T04:07:40Z","2025-09-06T04:07:44Z","2025-09-06T04:07:48Z","2025-09-06T04:07:52Z","2025-09-06T04:07:55Z","2025-09-06T04:07:59Z","2025-09-06T04:08:03Z","2025-09-06T04:08:07Z","2025-09-06T04:08:11Z","2025-09-06T04:08:14Z","2025-09-06T04:08:17Z","2025-09-06T04:08:21Z","2025-09-06T04:08:25Z","2025-09-06T04:08:29Z","2025-09-06T04:08:33Z","2025-09-06T04:08:36Z","2025-09-06T04:08:39Z","2025-09-06T04:08:42Z","2025-09-06T04:08:46Z","2025-09-06T04:08:49Z","2025-09-06T04:08:52Z","2025-09-06T04:08:56Z","2025-09-06T04:08:59Z","2025-09-06T04:09:03Z","2025-09-06T04:09:06Z","2025-09-06T04:09:09Z","2025-09-06T04:09:13Z","2025-09-06T04:09:17Z","2025-09-06T04:09:22Z","2025-09-06T04:09:26Z","2025-09-06T04:09:30Z","2025-09-06T04:09:34Z","2025-09-06T04:09:38Z","2025-09-06T04:09:42Z","2025-09-06T04:09:46Z","2025-09-06T04:09:50Z","2025-09-06T04:09:53Z","2025-09-06T04:09:57Z","2025-09-06T04:10:01Z","2025-09-06T04:10:05Z","2025-09-06T04:10:09Z","2025-09-06T04:10:12Z","2025-09-06T04:10:16Z","2025-09-06T04:10:19Z","2025-09-06T04:10:22Z","2025-09-06T04:10:25Z","2025-09-06T04:10:28Z","2025-09-06T04:10:31Z","2025-09-06T04:10:34Z","2025-09-06T04:10:37Z","2025-09-06T04:10:40Z","2025-09-06T04:10:43Z","2025-09-06T04:10:46Z","2025-09-06T04:10:52Z","2025-09-06T04:10:57Z","2025-09-06T04:11:01Z","2025-09-06T04:11:05Z","2025-09-06T04:11:10Z","2025-09-06T04:11:14Z","2025-09-06T04:11:18Z","2025-09-06T04:11:22Z","2025-09-06T04:11:27Z","2025-09-06T04:11:31Z","2025-09-06T04:11:35Z","2025-09-06T04:11:38Z","2025-09-06T04:11:41Z","2025-09-06T04:11:44Z","2025-09-06T04:11:47Z","2025-09-06T04:11:50Z","2025-09-06T04:11:53Z","2025-09-06T04:11:56Z","2025-09-06T04:11:59Z","2025-09-06T04:12:03Z","2025-09-06T04:12:07Z","2025-09-06T04:12:11Z","2025-09-06T04:12:14Z","2025-09-06T04:12:17Z","2025-09-06T04:12:20Z","2025-09-06T04:12:23Z","2025-09-06T04:12:26Z","2025-09-06T04:12:30Z","2025-09-06T04:12:33Z","2025-09-06T04:12:37Z","2025-09-06T04:12:40Z","2025-09-06T04:12:43Z","2025-09-06T04:12:46Z","2025-09-06T04:12:49Z","2025-09-06T04:12:52Z","2025-09-06T04:12:56Z","2025-09-06T04:13:00Z","2025-09-06T04:13:03Z","2025-09-06T04:13:06Z","2025-09-06T04:13:09Z","2025-09-06T04:13:13Z","2025-09-06T04:13:16Z","2025-09-06T04:13:20Z","2025-09-06T04:13:24Z","2025-09-06T04:13:28Z","2025-09-06T04:13:31Z","2025-09-06T04:13:34Z","2025-09-06T04:13:38Z","2025-09-06T04:13:42Z","2025-09-06T04:13:47Z","2025-09-06T04:14:07Z","2025-09-06T04:14:12Z","2025-09-06T04:14:15Z","2025-09-06T04:14:19Z","2025-09-06T04:14:22Z","2025-09-06T04:14:25Z","2025-09-06T04:14:27Z","2025-09-06T04:14:29Z","2025-09-06T04:14:31Z","2025-09-06T04:14:33Z","2025-09-06T04:14:36Z","2025-09-06T04:14:38Z","2025-09-06T04:14:41Z","2025-09-06T04:14:44Z","2025-09-06T04:14:46Z","2025-09-06T04:14:48Z","2025-09-06T04:14:50Z","2025-09-06T04:14:52Z","2025-09-06T04:14:54Z","2025-09-06T04:14:56Z","2025-09-06T04:14:58Z","2025-09-06T04:15:00Z","2025-09-06T04:15:02Z","2025-09-06T04:15:04Z","2025-09-06T04:15:06Z","2025-09-06T04:15:08Z","2025-09-06T04:15:10Z","2025-09-06T04:15:12Z","2025-09-06T04:15:14Z","2025-09-06T04:15:16Z","2025-09-06T04:15:18Z","2025-09-06T04:15:20Z","2025-09-06T04:15:22Z","2025-09-06T04:15:25Z","2025-09-06T04:15:28Z","2025-09-06T04:15:33Z","2025-09-06T04:15:55Z","2025-09-06T04:16:00Z","2025-09-06T04:16:04Z","2025-09-06T04:16:08Z","2025-09-06T04:16:12Z","2025-09-06T04:16:24Z","2025-09-06T04:16:28Z","2025-09-06T04:16:32Z","2025-09-06T04:16:36Z","2025-09-06T04:16:40Z","2025-09-06T04:16:44Z","2025-09-06T04:16:48Z","2025-09-06T04:16:51Z","2025-09-06T04:16:54Z","2025-09-06T04:16:58Z","2025-09-06T04:17:02Z","2025-09-06T04:17:06Z","2025-09-06T04:17:10Z","2025-09-06T04:17:15Z","2025-09-06T04:17:20Z","2025-09-06T04:17:24Z","2025-09-06T04:17:28Z","2025-09-06T04:17:32Z","2025-09-06T04:17:37Z","2025-09-06T04:18:05Z","2025-09-06T04:18:12Z","2025-09-06T04:18:16Z","2025-09-06T04:18:20Z","2025-09-06T04:18:24Z","2025-09-06T04:18:27Z","2025-09-06T04:18:29Z","2025-09-06T04:18:31Z","2025-09-06T04:18:33Z","2025-09-06T04:18:35Z","2025-09-06T04:18:37Z","2025-09-06T04:18:39Z","2025-09-06T04:18:41Z","2025-09-06T04:18:44Z","2025-09-06T04:18:47Z","2025-09-06T04:18:49Z","2025-09-06T04:18:51Z","2025-09-06T04:18:53Z","2025-09-06T04:18:55Z","2025-09-06T04:18:57Z","2025-09-06T04:18:59Z","2025-09-06T04:19:01Z","2025-09-06T04:19:03Z","2025-09-06T04:19:05Z","2025-09-06T04:19:07Z","2025-09-06T04:19:09Z","2025-09-06T04:19:11Z","2025-09-06T04:19:13Z","2025-09-06T04:19:16Z","2025-09-06T04:19:19Z","2025-09-06T04:19:21Z","2025-09-06T04:19:23Z","2025-09-06T04:19:26Z","2025-09-06T04:19:29Z","2025-09-06T04:19:32Z","2025-09-06T04:19:35Z","2025-09-06T04:19:39Z","2025-09-06T04:19:44Z","2025-09-06T04:19:47Z","2025-09-06T04:19:50Z","2025-09-06T04:19:53Z","2025-09-06T04:19:57Z","2025-09-06T04:20:01Z","2025-09-06T04:20:05Z","2025-09-06T04:20:09Z","2025-09-06T04:20:13Z","2025-09-06T04:20:18Z","2025-09-06T04:20:22Z","2025-09-06T04:20:26Z","2025-09-06T04:20:30Z","2025-09-06T04:20:33Z","2025-09-06T04:20:36Z","2025-09-06T04:20:39Z","2025-09-06T04:20:42Z","2025-09-06T04:20:45Z","2025-09-06T04:20:48Z","2025-09-06T04:20:52Z","2025-09-06T04:20:56Z","2025-09-06T04:21:00Z","2025-09-06T04:21:04Z","2025-09-06T04:21:08Z","2025-09-06T04:21:12Z","2025-09-06T04:21:16Z","2025-09-06T04:21:20Z","2025-09-06T04:21:24Z","2025-09-06T04:21:29Z","2025-09-06T04:21:35Z","2025-09-06T04:21:38Z","2025-09-06T04:21:41Z","2025-09-06T04:21:44Z","2025-09-06T04:21:47Z","2025-09-06T04:21:51Z","2025-09-06T04:21:54Z","2025-09-06T04:21:57Z","2025-09-06T04:22:00Z","2025-09-06T04:22:03Z","2025-09-06T04:22:06Z","2025-09-06T04:22:09Z","2025-09-06T04:22:12Z","2025-09-06T04:22:15Z","2025-09-06T04:22:18Z","2025-09-06T04:22:21Z","2025-09-06T04:22:25Z","2025-09-06T04:22:28Z","2025-09-06T04:22:33Z","2025-09-06T04:22:37Z","2025-09-06T04:22:40Z","2025-09-06T04:22:44Z","2025-09-06T04:22:47Z","2025-09-06T04:22:51Z","2025-09-06T04:22:55Z","2025-09-06T04:22:59Z","2025-09-06T04:23:03Z","2025-09-06T04:23:07Z","2025-09-06T04:23:10Z","2025-09-06T04:23:13Z","2025-09-06T04:23:16Z","2025-09-06T04:23:20Z","2025-09-06T04:23:23Z","2025-09-06T04:23:27Z","2025-09-06T04:23:31Z","2025-09-06T04:23:36Z","2025-09-06T04:23:40Z","2025-09-06T04:23:44Z","2025-09-06T04:23:48Z","2025-09-06T04:23:52Z","2025-09-06T04:23:57Z","2025-09-06T04:24:01Z","2025-09-06T04:24:05Z","2025-09-06T04:24:09Z","2025-09-06T04:24:12Z","2025-09-06T04:24:16Z","2025-09-06T04:24:19Z","2025-09-06T04:24:23Z","2025-09-06T04:24:27Z","2025-09-06T04:24:31Z","2025-09-06T04:24:36Z","2025-09-06T04:25:14Z","2025-09-06T04:25:22Z","2025-09-06T04:25:29Z","2025-09-06T04:25:34Z","2025-09-06T04:25:38Z","2025-09-06T04:25:42Z","2025-09-06T04:25:46Z","2025-09-06T04:25:51Z","2025-09-06T04:26:01Z","2025-09-06T04:26:05Z","2025-09-06T04:26:09Z","2025-09-06T04:26:13Z","2025-09-06T04:26:17Z","2025-09-06T04:26:21Z","2025-09-06T04:26:25Z","2025-09-06T04:26:29Z","2025-09-06T04:26:33Z","2025-09-06T04:26:36Z","2025-09-06T04:26:39Z","2025-09-06T04:26:43Z","2025-09-06T04:26:47Z","2025-09-06T04:26:51Z","2025-09-06T04:26:54Z","2025-09-06T04:26:57Z","2025-09-06T04:27:00Z","2025-09-06T04:27:03Z","2025-09-06T04:27:07Z","2025-09-06T04:27:11Z","2025-09-06T04:27:14Z","2025-09-06T04:27:18Z","2025-09-06T04:27:22Z","2025-09-06T04:27:25Z","2025-09-06T04:27:28Z","2025-09-06T04:27:31Z","2025-09-06T04:27:34Z","2025-09-06T04:27:36Z","2025-09-06T04:27:38Z","2025-09-06T04:27:40Z","2025-09-06T04:27:42Z","2025-09-06T04:27:44Z","2025-09-06T04:27:46Z","2025-09-06T04:27:48Z","2025-09-06T04:27:50Z","2025-09-06T04:27:52Z","2025-09-06T04:27:54Z","2025-09-06T04:27:56Z","2025-09-06T04:27:58Z","2025-09-06T04:28:00Z","2025-09-06T04:28:02Z","2025-09-06T04:28:04Z","2025-09-06T04:28:06Z","2025-09-06T04:28:08Z","2025-09-06T04:28:10Z","2025-09-06T04:28:12Z","2025-09-06T04:28:14Z","2025-09-06T04:28:16Z","2025-09-06T04:28:18Z","2025-09-06T04:28:20Z","2025-09-06T04:28:22Z","2025-09-06T04:28:24Z","2025-09-06T04:28:26Z","2025-09-06T04:28:28Z","2025-09-06T04:28:30Z","2025-09-06T04:28:32Z","2025-09-06T04:28:34Z","2025-09-06T04:28:36Z","2025-09-06T04:28:39Z","2025-09-06T04:28:41Z","2025-09-06T04:28:43Z","2025-09-06T04:28:45Z","2025-09-06T04:28:47Z","2025-09-06T04:28:50Z","2025-09-06T04:28:53Z","2025-09-06T04:28:56Z","2025-09-06T04:28:59Z","2025-09-06T04:29:02Z","2025-09-06T04:29:05Z","2025-09-06T04:29:08Z","2025-09-06T04:29:11Z","2025-09-06T04:29:15Z","2025-09-06T04:29:19Z","2025-09-06T04:29:23Z","2025-09-06T04:29:26Z","2025-09-06T04:29:30Z","2025-09-06T04:29:34Z","2025-09-06T04:29:37Z","2025-09-06T04:29:40Z","2025-09-06T04:29:43Z","2025-09-06T04:29:46Z","2025-09-06T04:29:50Z","2025-09-06T04:29:53Z","2025-09-06T04:29:56Z","2025-09-06T04:30:00Z","2025-09-06T04:30:04Z","2025-09-06T04:30:07Z","2025-09-06T04:30:10Z","2025-09-06T04:30:14Z","2025-09-06T04:30:18Z","2025-09-06T04:30:22Z","2025-09-06T04:30:27Z","2025-09-06T04:30:31Z","2025-09-06T04:30:36Z","2025-09-06T04:30:39Z","2025-09-06T04:30:42Z","2025-09-06T04:30:45Z","2025-09-06T04:30:49Z","2025-09-06T04:30:53Z","2025-09-06T04:30:56Z","2025-09-06T04:31:06Z","2025-09-06T04:31:10Z","2025-09-06T04:31:16Z","2025-09-06T04:31:21Z","2025-09-06T04:31:26Z","2025-09-06T04:31:33Z","2025-09-06T04:31:52Z","2025-09-06T04:32:20Z","2025-09-06T04:32:25Z","2025-09-06T04:32:30Z","2025-09-06T04:32:35Z","2025-09-06T04:32:40Z","2025-09-06T04:32:44Z","2025-09-06T04:32:48Z","2025-09-06T04:32:52Z","2025-09-06T04:32:56Z","2025-09-06T04:33:00Z","2025-09-06T04:33:20Z","2025-09-06T04:33:25Z","2025-09-06T04:33:28Z","2025-09-06T04:33:30Z","2025-09-06T04:33:32Z","2025-09-06T04:33:34Z","2025-09-06T04:33:36Z","2025-09-06T04:33:38Z","2025-09-06T04:33:40Z","2025-09-06T04:33:42Z","2025-09-06T04:33:44Z","2025-09-06T04:33:46Z","2025-09-06T04:33:48Z","2025-09-06T04:33:50Z","2025-09-06T04:33:52Z","2025-09-06T04:33:54Z","2025-09-06T04:33:56Z","2025-09-06T04:33:58Z","2025-09-06T04:34:00Z","2025-09-06T04:34:02Z","2025-09-06T04:34:04Z","2025-09-06T04:34:06Z","2025-09-06T04:34:08Z","2025-09-06T04:34:10Z","2025-09-06T04:34:12Z","2025-09-06T04:34:14Z","2025-09-06T04:34:16Z","2025-09-06T04:34:18Z","2025-09-06T04:34:20Z","2025-09-06T04:34:22Z","2025-09-06T04:34:24Z","2025-09-06T04:34:26Z","2025-09-06T04:34:28Z","2025-09-06T04:34:30Z","2025-09-06T04:34:32Z","2025-09-06T04:34:34Z","2025-09-06T04:34:36Z","2025-09-06T04:34:38Z","2025-09-06T04:34:40Z","2025-09-06T04:34:42Z","2025-09-06T04:34:44Z","2025-09-06T04:34:46Z","2025-09-06T04:34:48Z","2025-09-06T04:34:50Z","2025-09-06T04:34:52Z","2025-09-06T04:34:54Z","2025-09-06T04:34:56Z","2025-09-06T04:34:58Z","2025-09-06T04:35:01Z","2025-09-06T04:35:04Z","2025-09-06T04:35:07Z","2025-09-06T04:35:11Z","2025-09-06T04:35:15Z","2025-09-06T04:35:19Z","2025-09-06T04:35:23Z","2025-09-06T04:35:25Z","2025-09-06T04:35:28Z","2025-09-06T04:35:38Z","2025-09-06T04:35:42Z","2025-09-06T04:35:46Z","2025-09-06T04:35:49Z","2025-09-06T04:35:53Z","2025-09-06T04:35:57Z","2025-09-06T04:36:01Z","2025-09-06T04:36:04Z","2025-09-06T04:36:07Z","2025-09-06T04:36:10Z","2025-09-06T04:36:14Z","2025-09-06T04:36:18Z","2025-09-06T04:36:21Z","2025-09-06T04:36:24Z","2025-09-06T04:36:28Z","2025-09-06T04:36:34Z","2025-09-06T04:36:40Z","2025-09-06T04:36:44Z","2025-09-06T04:36:50Z","2025-09-06T04:36:54Z","2025-09-06T04:36:57Z","2025-09-06T04:37:00Z","2025-09-06T04:37:03Z","2025-09-06T04:37:06Z","2025-09-06T04:37:08Z","2025-09-06T04:37:10Z","2025-09-06T04:37:14Z","2025-09-06T04:37:17Z","2025-09-06T04:37:20Z","2025-09-06T04:37:22Z","2025-09-06T04:37:24Z","2025-09-06T04:37:26Z","2025-09-06T04:37:29Z","2025-09-06T04:37:31Z","2025-09-06T04:37:33Z","2025-09-06T04:37:35Z","2025-09-06T04:37:37Z","2025-09-06T04:37:39Z","2025-09-06T04:37:41Z","2025-09-06T04:37:43Z","2025-09-06T04:37:45Z","2025-09-06T04:37:47Z","2025-09-06T04:37:49Z","2025-09-06T04:37:51Z","2025-09-06T04:37:53Z","2025-09-06T04:37:55Z","2025-09-06T04:37:57Z","2025-09-06T04:38:00Z","2025-09-06T04:38:03Z","2025-09-06T04:38:06Z","2025-09-06T04:38:10Z","2025-09-06T04:38:17Z","2025-09-06T04:38:26Z","2025-09-06T04:38:29Z","2025-09-06T04:38:33Z","2025-09-06T04:38:42Z","2025-09-06T04:38:45Z","2025-09-06T04:38:48Z","2025-09-06T04:38:53Z","2025-09-06T04:38:59Z","2025-09-06T04:39:03Z","2025-09-06T04:39:07Z","2025-09-06T04:39:11Z","2025-09-06T04:39:14Z","2025-09-06T04:39:18Z","2025-09-06T04:39:22Z","2025-09-06T04:39:27Z","2025-09-06T04:39:30Z","2025-09-06T04:39:34Z","2025-09-06T04:39:42Z","2025-09-06T04:39:45Z","2025-09-06T04:39:54Z","2025-09-06T04:39:58Z","2025-09-06T04:40:03Z","2025-09-06T04:40:08Z","2025-09-06T04:40:12Z","2025-09-06T04:40:16Z","2025-09-06T04:40:20Z","2025-09-06T04:40:24Z","2025-09-06T04:40:27Z","2025-09-06T04:40:31Z","2025-09-06T04:40:34Z","2025-09-06T04:40:37Z","2025-09-06T04:40:40Z","2025-09-06T04:40:44Z","2025-09-06T04:40:47Z","2025-09-06T04:40:50Z","2025-09-06T04:40:54Z","2025-09-06T04:40:57Z","2025-09-06T04:41:00Z","2025-09-06T04:41:03Z","2025-09-06T04:41:06Z","2025-09-06T04:41:10Z","2025-09-06T04:42:02Z","2025-09-06T04:42:22Z","2025-09-06T04:42:25Z","2025-09-06T04:42:29Z","2025-09-06T04:42:33Z","2025-09-06T04:42:37Z","2025-09-06T04:42:42Z","2025-09-06T04:42:45Z","2025-09-06T04:42:48Z","2025-09-06T04:42:51Z","2025-09-06T04:42:54Z","2025-09-06T04:42:57Z","2025-09-06T04:43:00Z","2025-09-06T04:43:04Z","2025-09-06T04:43:07Z","2025-09-06T04:43:10Z","2025-09-06T04:43:14Z","2025-09-06T04:43:18Z","2025-09-06T04:43:22Z","2025-09-06T04:43:25Z","2025-09-06T04:43:28Z","2025-09-06T04:43:32Z","2025-09-06T04:43:35Z","2025-09-06T04:43:38Z","2025-09-06T04:43:41Z","2025-09-06T04:43:44Z","2025-09-06T04:43:47Z","2025-09-06T04:43:50Z","2025-09-06T04:43:53Z","2025-09-06T04:43:56Z","2025-09-06T04:43:59Z","2025-09-06T04:44:02Z","2025-09-06T04:44:05Z","2025-09-06T04:44:10Z","2025-09-06T04:44:15Z","2025-09-06T04:44:19Z","2025-09-06T04:44:22Z","2025-09-06T04:44:31Z","2025-09-06T04:44:35Z","2025-09-06T04:44:39Z","2025-09-06T04:44:42Z","2025-09-06T04:44:45Z","2025-09-06T04:44:49Z","2025-09-06T04:44:54Z","2025-09-06T04:44:58Z","2025-09-06T04:45:02Z","2025-09-06T04:45:05Z","2025-09-06T04:45:09Z","2025-09-06T04:45:13Z","2025-09-06T04:45:17Z","2025-09-06T04:45:21Z","2025-09-06T04:45:24Z","2025-09-06T04:45:28Z","2025-09-06T04:45:31Z","2025-09-06T04:45:34Z","2025-09-06T04:45:38Z","2025-09-06T04:45:42Z","2025-09-06T04:45:46Z","2025-09-06T04:45:49Z","2025-09-06T04:45:53Z","2025-09-06T04:45:57Z","2025-09-06T04:46:01Z","2025-09-06T04:46:05Z","2025-09-06T04:46:09Z","2025-09-06T04:46:13Z","2025-09-06T04:46:50Z","2025-09-06T04:46:53Z","2025-09-06T04:46:57Z","2025-09-06T04:47:01Z","2025-09-06T04:47:05Z","2025-09-06T04:47:09Z","2025-09-06T04:47:13Z","2025-09-06T04:47:17Z","2025-09-06T04:47:20Z","2025-09-06T04:47:24Z","2025-09-06T04:47:27Z","2025-09-06T04:47:30Z","2025-09-06T04:47:34Z","2025-09-06T04:47:38Z","2025-09-06T04:47:42Z","2025-09-06T04:47:46Z","2025-09-06T04:47:49Z","2025-09-06T04:47:53Z","2025-09-06T04:47:56Z","2025-09-06T04:47:59Z","2025-09-06T04:48:02Z","2025-09-06T04:48:06Z","2025-09-06T04:48:09Z","2025-09-06T04:48:13Z","2025-09-06T04:48:18Z","2025-09-06T04:48:23Z","2025-09-06T04:48:27Z","2025-09-06T04:48:31Z","2025-09-06T04:48:35Z","2025-09-06T04:48:38Z","2025-09-06T04:48:41Z","2025-09-06T04:48:45Z","2025-09-06T04:48:49Z","2025-09-06T04:48:53Z","2025-09-06T04:48:57Z","2025-09-06T04:49:02Z","2025-09-06T04:49:07Z","2025-09-06T04:49:23Z","2025-09-06T04:49:26Z","2025-09-06T04:49:30Z","2025-09-06T04:49:34Z","2025-09-06T04:50:00Z","2025-09-06T04:50:04Z","2025-09-06T04:50:08Z","2025-09-06T04:50:12Z","2025-09-06T04:50:16Z","2025-09-06T04:50:19Z","2025-09-06T04:50:22Z","2025-09-06T04:50:25Z","2025-09-06T04:50:29Z","2025-09-06T04:50:32Z","2025-09-06T04:50:36Z","2025-09-06T04:50:40Z","2025-09-06T04:50:44Z","2025-09-06T04:50:53Z","2025-09-06T04:51:16Z","2025-09-06T04:51:20Z","2025-09-06T04:51:25Z","2025-09-06T04:51:30Z","2025-09-06T04:51:35Z","2025-09-06T04:51:39Z","2025-09-06T04:51:43Z","2025-09-06T04:51:52Z","2025-09-06T04:51:56Z","2025-09-06T04:52:00Z","2025-09-06T04:52:06Z","2025-09-06T04:52:51Z","2025-09-06T04:52:59Z","2025-09-06T04:53:23Z","2025-09-06T04:53:27Z","2025-09-06T04:53:31Z","2025-09-06T04:53:36Z","2025-09-06T04:53:53Z","2025-09-06T04:54:02Z","2025-09-06T04:54:06Z","2025-09-06T04:54:24Z","2025-09-06T04:54:28Z","2025-09-06T04:54:32Z","2025-09-06T04:54:37Z","2025-09-06T04:54:54Z","2025-09-06T04:54:57Z","2025-09-06T04:55:02Z","2025-09-06T04:55:06Z","2025-09-06T04:55:10Z","2025-09-06T04:55:14Z","2025-09-06T04:55:18Z","2025-09-06T04:55:22Z","2025-09-06T04:55:26Z","2025-09-06T04:55:30Z","2025-09-06T04:55:34Z","2025-09-06T04:55:37Z","2025-09-06T04:55:40Z","2025-09-06T04:55:43Z","2025-09-06T04:55:46Z","2025-09-06T04:55:51Z","2025-09-06T04:55:54Z","2025-09-06T04:55:57Z","2025-09-06T04:55:59Z","2025-09-06T04:56:02Z","2025-09-06T04:56:05Z","2025-09-06T04:56:09Z","2025-09-06T04:56:13Z","2025-09-06T04:56:17Z","2025-09-06T04:56:21Z","2025-09-06T04:56:24Z","2025-09-06T04:56:27Z","2025-09-06T04:56:32Z","2025-09-06T04:56:36Z","2025-09-06T04:56:40Z","2025-09-06T04:56:44Z","2025-09-06T04:56:47Z","2025-09-06T04:56:50Z","2025-09-06T04:56:55Z","2025-09-06T04:57:00Z","2025-09-06T04:57:04Z","2025-09-06T04:57:08Z","2025-09-06T04:57:12Z","2025-09-06T04:57:15Z","2025-09-06T04:57:18Z","2025-09-06T04:57:22Z","2025-09-06T04:57:25Z","2025-09-06T04:57:28Z","2025-09-06T04:57:31Z","2025-09-06T04:57:34Z","2025-09-06T04:57:37Z","2025-09-06T04:57:40Z","2025-09-06T04:57:44Z","2025-09-06T04:57:47Z","2025-09-06T04:57:51Z","2025-09-06T04:57:54Z","2025-09-06T04:57:57Z","2025-09-06T04:58:00Z","2025-09-06T04:58:03Z","2025-09-06T04:58:07Z","2025-09-06T04:58:11Z","2025-09-06T04:58:15Z","2025-09-06T04:58:18Z","2025-09-06T04:58:22Z","2025-09-06T04:58:28Z","2025-09-06T04:58:33Z","2025-09-06T04:58:38Z","2025-09-06T04:58:52Z","2025-09-06T04:59:09Z","2025-09-06T04:59:13Z","2025-09-06T04:59:16Z","2025-09-06T04:59:19Z","2025-09-06T04:59:23Z","2025-09-06T04:59:27Z","2025-09-06T04:59:32Z","2025-09-06T04:59:36Z","2025-09-06T04:59:42Z","2025-09-06T04:59:57Z","2025-09-06T05:00:02Z","2025-09-06T05:00:07Z","2025-09-06T05:00:12Z","2025-09-06T05:00:15Z","2025-09-06T05:00:19Z","2025-09-06T05:00:22Z","2025-09-06T05:00:25Z","2025-09-06T05:00:29Z","2025-09-06T05:00:33Z","2025-09-06T05:00:37Z","2025-09-06T05:00:40Z","2025-09-06T05:00:43Z","2025-09-06T05:00:47Z","2025-09-06T05:00:51Z","2025-09-06T05:00:54Z","2025-09-06T05:00:57Z","2025-09-06T05:01:02Z","2025-09-06T05:01:08Z","2025-09-06T05:01:12Z","2025-09-06T05:01:19Z","2025-09-06T05:01:22Z","2025-09-06T05:01:25Z","2025-09-06T05:01:29Z","2025-09-06T05:01:32Z","2025-09-06T05:01:35Z","2025-09-06T05:01:38Z","2025-09-06T05:01:41Z","2025-09-06T05:01:44Z","2025-09-06T05:01:47Z","2025-09-06T05:01:50Z","2025-09-06T05:01:54Z","2025-09-06T05:01:58Z","2025-09-06T05:02:02Z","2025-09-06T05:02:06Z","2025-09-06T05:02:10Z","2025-09-06T05:02:14Z","2025-09-06T05:02:19Z","2025-09-06T05:02:23Z","2025-09-06T05:02:26Z","2025-09-06T05:02:29Z","2025-09-06T05:02:32Z","2025-09-06T05:02:35Z","2025-09-06T05:02:38Z","2025-09-06T05:02:41Z","2025-09-06T05:02:45Z","2025-09-06T05:02:49Z","2025-09-06T05:02:53Z","2025-09-06T05:02:56Z","2025-09-06T05:03:00Z","2025-09-06T05:03:04Z","2025-09-06T05:03:09Z","2025-09-06T05:03:14Z","2025-09-06T05:03:18Z","2025-09-06T05:03:22Z","2025-09-06T05:03:27Z","2025-09-06T05:03:31Z","2025-09-06T05:03:36Z","2025-09-06T05:03:39Z","2025-09-06T05:03:43Z","2025-09-06T05:03:49Z","2025-09-06T05:03:54Z","2025-09-06T05:03:57Z","2025-09-06T05:04:00Z","2025-09-06T05:04:03Z","2025-09-06T05:04:07Z","2025-09-06T05:04:11Z","2025-09-06T05:04:15Z","2025-09-06T05:04:19Z","2025-09-06T05:04:23Z","2025-09-06T05:04:27Z","2025-09-06T05:04:31Z","2025-09-06T05:04:35Z","2025-09-06T05:04:39Z","2025-09-06T05:04:43Z","2025-09-06T05:04:47Z","2025-09-06T05:04:51Z","2025-09-06T05:04:55Z","2025-09-06T05:04:59Z","2025-09-06T05:05:03Z","2025-09-06T05:05:07Z","2025-09-06T05:05:11Z","2025-09-06T05:05:15Z","2025-09-06T05:05:19Z","2025-09-06T05:05:22Z","2025-09-06T05:05:25Z","2025-09-06T05:05:29Z","2025-09-06T05:05:33Z","2025-09-06T05:05:37Z","2025-09-06T05:05:41Z","2025-09-06T05:05:45Z","2025-09-06T05:05:49Z","2025-09-06T05:05:59Z","2025-09-06T05:06:03Z","2025-09-06T05:06:07Z","2025-09-06T05:06:11Z","2025-09-06T05:06:15Z","2025-09-06T05:06:20Z","2025-09-06T05:06:24Z","2025-09-06T05:06:28Z","2025-09-06T05:06:32Z","2025-09-06T05:06:36Z","2025-09-06T05:06:40Z","2025-09-06T05:07:23Z","2025-09-06T05:07:26Z","2025-09-06T05:07:30Z","2025-09-06T05:07:35Z","2025-09-06T05:07:40Z","2025-09-06T05:07:44Z","2025-09-06T05:07:48Z","2025-09-06T05:07:52Z","2025-09-06T05:07:56Z","2025-09-06T05:08:00Z","2025-09-06T05:08:04Z","2025-09-06T05:08:08Z","2025-09-06T05:08:11Z","2025-09-06T05:08:15Z","2025-09-06T05:08:19Z","2025-09-06T05:08:23Z","2025-09-06T05:08:27Z","2025-09-06T05:08:31Z","2025-09-06T05:08:35Z","2025-09-06T05:08:39Z","2025-09-06T05:08:43Z","2025-09-06T05:08:46Z","2025-09-06T05:08:49Z","2025-09-06T05:08:52Z","2025-09-06T05:08:56Z","2025-09-06T05:09:00Z","2025-09-06T05:09:04Z","2025-09-06T05:09:08Z","2025-09-06T05:09:12Z","2025-09-06T05:09:16Z","2025-09-06T05:09:20Z","2025-09-06T05:09:25Z","2025-09-06T05:09:29Z","2025-09-06T05:09:33Z","2025-09-06T05:09:37Z","2025-09-06T05:10:34Z","2025-09-06T05:10:41Z","2025-09-06T05:10:46Z","2025-09-06T05:11:21Z","2025-09-06T05:11:34Z","2025-09-06T05:11:41Z","2025-09-06T05:12:22Z","2025-09-06T05:13:44Z","2025-09-06T05:13:54Z","2025-09-06T05:13:58Z","2025-09-06T05:14:03Z","2025-09-06T05:14:57Z","2025-09-06T05:15:00Z","2025-09-06T05:15:11Z","2025-09-06T05:15:41Z","2025-09-06T05:15:45Z","2025-09-06T05:15:49Z","2025-09-06T05:15:52Z","2025-09-06T05:15:56Z","2025-09-06T05:16:01Z","2025-09-06T05:16:05Z","2025-09-06T05:16:11Z","2025-09-06T05:16:16Z","2025-09-06T05:16:20Z","2025-09-06T05:16:23Z","2025-09-06T05:16:26Z","2025-09-06T05:16:29Z","2025-09-06T05:16:32Z","2025-09-06T05:16:35Z","2025-09-06T05:16:38Z","2025-09-06T05:16:44Z","2025-09-06T05:16:48Z","2025-09-06T05:16:52Z","2025-09-06T05:16:56Z","2025-09-06T05:16:59Z","2025-09-06T05:17:02Z","2025-09-06T05:17:06Z","2025-09-06T05:17:11Z","2025-09-06T05:17:16Z","2025-09-06T05:17:20Z","2025-09-06T05:17:30Z","2025-09-06T05:17:33Z","2025-09-06T05:17:36Z","2025-09-06T05:17:39Z","2025-09-06T05:17:44Z","2025-09-06T05:17:48Z","2025-09-06T05:17:52Z","2025-09-06T05:17:59Z","2025-09-06T05:18:06Z","2025-09-06T05:18:14Z","2025-09-06T05:18:17Z","2025-09-06T05:18:21Z","2025-09-06T05:18:24Z","2025-09-06T05:18:28Z","2025-09-06T05:18:31Z","2025-09-06T05:18:35Z","2025-09-06T05:18:38Z","2025-09-06T05:18:42Z","2025-09-06T05:18:47Z","2025-09-06T05:18:53Z","2025-09-06T05:18:57Z","2025-09-06T05:19:01Z","2025-09-06T05:19:05Z","2025-09-06T05:19:09Z","2025-09-06T05:19:12Z","2025-09-06T05:19:15Z","2025-09-06T05:19:19Z","2025-09-06T05:19:23Z","2025-09-06T05:19:27Z","2025-09-06T05:19:30Z","2025-09-06T05:19:34Z","2025-09-06T05:19:40Z","2025-09-06T05:20:00Z","2025-09-06T05:20:04Z","2025-09-06T05:20:07Z","2025-09-06T05:20:10Z","2025-09-06T05:20:14Z","2025-09-06T05:20:18Z","2025-09-06T05:20:21Z","2025-09-06T05:20:24Z","2025-09-06T05:20:26Z","2025-09-06T05:20:28Z","2025-09-06T05:20:30Z","2025-09-06T05:20:32Z","2025-09-06T05:20:34Z","2025-09-06T05:20:36Z","2025-09-06T05:20:38Z","2025-09-06T05:20:40Z","2025-09-06T05:20:43Z","2025-09-06T05:20:46Z","2025-09-06T05:20:49Z","2025-09-06T05:20:51Z","2025-09-06T05:20:53Z","2025-09-06T05:20:55Z","2025-09-06T05:20:58Z","2025-09-06T05:21:01Z","2025-09-06T05:21:18Z","2025-09-06T05:21:21Z","2025-09-06T05:21:24Z","2025-09-06T05:21:27Z","2025-09-06T05:21:31Z","2025-09-06T05:21:35Z","2025-09-06T05:21:38Z","2025-09-06T05:21:41Z","2025-09-06T05:21:44Z","2025-09-06T05:21:49Z","2025-09-06T05:21:53Z","2025-09-06T05:21:57Z","2025-09-06T05:22:04Z","2025-09-06T05:22:12Z","2025-09-06T05:22:15Z","2025-09-06T05:22:18Z","2025-09-06T05:22:22Z","2025-09-06T05:22:25Z","2025-09-06T05:22:28Z","2025-09-06T05:22:31Z","2025-09-06T05:22:35Z","2025-09-06T05:22:38Z","2025-09-06T05:22:41Z","2025-09-06T05:22:43Z","2025-09-06T05:22:45Z","2025-09-06T05:22:48Z","2025-09-06T05:22:52Z","2025-09-06T05:22:56Z","2025-09-06T05:23:00Z","2025-09-06T05:23:03Z","2025-09-06T05:23:06Z","2025-09-06T05:23:10Z","2025-09-06T05:23:14Z","2025-09-06T05:23:18Z","2025-09-06T05:23:21Z","2025-09-06T05:23:24Z","2025-09-06T05:23:27Z","2025-09-06T05:23:30Z","2025-09-06T05:23:33Z","2025-09-06T05:23:36Z","2025-09-06T05:23:39Z","2025-09-06T05:23:42Z","2025-09-06T05:23:46Z","2025-09-06T05:23:50Z","2025-09-06T05:23:53Z","2025-09-06T05:23:56Z","2025-09-06T05:23:59Z","2025-09-06T05:24:02Z","2025-09-06T05:24:06Z","2025-09-06T05:24:09Z","2025-09-06T05:24:13Z","2025-09-06T05:24:17Z","2025-09-06T05:24:20Z","2025-09-06T05:24:23Z","2025-09-06T05:24:26Z","2025-09-06T05:24:30Z","2025-09-06T05:24:34Z","2025-09-06T05:24:37Z","2025-09-06T05:24:40Z","2025-09-06T05:24:59Z","2025-09-06T05:25:02Z","2025-09-06T05:25:05Z","2025-09-06T05:25:09Z","2025-09-06T05:25:12Z","2025-09-06T05:25:15Z","2025-09-06T05:25:18Z","2025-09-06T05:25:20Z","2025-09-06T05:25:22Z","2025-09-06T05:25:24Z","2025-09-06T05:25:26Z","2025-09-06T05:25:28Z","2025-09-06T05:25:30Z","2025-09-06T05:25:33Z","2025-09-06T05:25:36Z","2025-09-06T05:25:40Z","2025-09-06T05:25:43Z","2025-09-06T05:25:46Z","2025-09-06T05:25:49Z","2025-09-06T05:25:52Z","2025-09-06T05:25:55Z","2025-09-06T05:25:58Z","2025-09-06T05:26:07Z","2025-09-06T05:26:10Z","2025-09-06T05:26:13Z","2025-09-06T05:26:16Z","2025-09-06T05:26:19Z","2025-09-06T05:26:22Z","2025-09-06T05:26:31Z","2025-09-06T05:26:34Z","2025-09-06T05:26:37Z","2025-09-06T05:26:40Z","2025-09-06T05:26:43Z","2025-09-06T05:26:46Z","2025-09-06T05:26:49Z","2025-09-06T05:26:53Z","2025-09-06T05:26:57Z","2025-09-06T05:27:01Z","2025-09-06T05:27:04Z","2025-09-06T05:27:07Z","2025-09-06T05:27:10Z","2025-09-06T05:27:14Z","2025-09-06T05:27:17Z","2025-09-06T05:27:20Z","2025-09-06T05:27:23Z","2025-09-06T05:27:26Z","2025-09-06T05:27:29Z","2025-09-06T05:27:32Z","2025-09-06T05:27:35Z","2025-09-06T05:27:38Z","2025-09-06T05:27:41Z","2025-09-06T05:27:45Z","2025-09-06T05:27:49Z","2025-09-06T05:27:53Z","2025-09-06T05:27:56Z","2025-09-06T05:27:59Z","2025-09-06T05:28:02Z","2025-09-06T05:28:06Z","2025-09-06T05:28:10Z","2025-09-06T05:28:14Z","2025-09-06T05:28:18Z","2025-09-06T05:28:22Z","2025-09-06T05:28:26Z","2025-09-06T05:28:30Z","2025-09-06T05:28:34Z","2025-09-06T05:28:38Z","2025-09-06T05:28:41Z","2025-09-06T05:28:44Z","2025-09-06T05:28:47Z","2025-09-06T05:28:50Z","2025-09-06T05:28:54Z","2025-09-06T05:28:58Z"]},"geometry":{"type":"LineString","coordinates":[[7.03503745,49.25059036,312.84918212890625],[7.03492182,49.25057351,312.74571990966797],[7.03485561,49.25054354,312.6578436957465],[7.03479551,49.25050841,312.49033203125],[7.03472977,49.25047703,312.2821599786932],[7.03466378,49.25044441,312.0302429199219],[7.03459692,49.25040895,311.7907527043269],[7.03453021,49.25037288,311.5823756626674],[7.0344676,49.25033628,311.0847385951451],[7.03440069,49.25030208,310.8655003138951],[7.03431748,49.25027744,310.6655970982143],[7.03424627,49.25026605,310.28958565848217],[7.03417074,49.25025349,310.01814923967635],[7.03408696,49.25024113,309.7379804338728],[7.0340134,49.25022269,309.4313659667969],[7.03394312,49.25020751,309.3101065499442],[7.03387429,49.25017892,309.2251630510603],[7.03385501,49.2501357,309.3062046595982],[7.03382178,49.25009415,309.4299883161272],[7.03375328,49.25006392,309.66637747628346],[7.03367921,49.25004886,309.9064287458147],[7.03359698,49.25002783,310.1515415736607],[7.03353312,49.24999517,310.47960989815846],[7.03347851,49.24995945,310.87486049107144],[7.03341662,49.24993122,311.1472909109933],[7.03334911,49.24990703,311.5216369628906],[7.03328779,49.24987271,311.8262459891183],[7.03322184,49.24984122,312.15757533482144],[7.03315508,49.24981597,312.57420131138394],[7.03309087,49.24978714,312.97769601004467],[7.03303123,49.24975914,313.210196358817],[7.03295448,49.24972721,313.3710414341518],[7.03289796,49.24970075,313.53370448521207],[7.03283713,49.24967503,313.6287754603795],[7.03277631,49.24964761,313.72166660853793],[7.03272178,49.24961216,313.7886221749442],[7.03265804,49.2495845,313.836669921875],[7.03258579,49.24956059,313.83582850864957],[7.03252,49.24952996,313.9252232142857],[7.03245467,49.24949721,313.9087175641741],[7.03239003,49.24946472,313.90604509626115],[7.03232495,49.249434,313.89977591378346],[7.03225503,49.24940942,313.6873779296875],[7.03219386,49.2493826,313.48924037388394],[7.03212957,49.24935769,313.4415065220424],[7.03207663,49.24932578,313.3514709472656],[7.03201762,49.24928584,313.3065752301897],[7.03193476,49.24926568,313.31168474469865],[7.0318496,49.24924091,313.43538992745533],[7.03178075,49.24921745,313.58204432896207],[7.0316912,49.24920873,313.67847987583707],[7.03161018,49.24919823,313.75484793526783],[7.0315532,49.24916141,313.7882646833147],[7.03149087,49.24912244,313.8872549874442],[7.03143861,49.24909126,313.96507481166293],[7.03139219,49.24905286,314.05566842215404],[7.03134909,49.24901,314.1357421875],[7.03131481,49.24896037,314.1706063406808],[7.03128536,49.24891345,314.16052682059154],[7.03126861,49.24886641,314.10440935407365],[7.03124131,49.24881028,314.08524431501115],[7.03121779,49.24875804,314.21285574776783],[7.03116734,49.24872431,314.179207938058],[7.03110973,49.24869669,314.1563415527344],[7.03107535,49.24865707,314.2191641671317],[7.03104791,49.24860509,314.4522443498884],[7.03100683,49.24855704,314.6437421526228],[7.03097011,49.24850897,314.8209926060268],[7.03092928,49.24846315,314.84124755859375],[7.03086919,49.24842255,314.8458949497768],[7.03082335,49.24838613,314.94051688058033],[7.03078161,49.24834878,315.2937796456473],[7.03073669,49.24831037,315.8111833844866],[7.03069673,49.2482605,316.4720546177455],[7.03065822,49.24821307,317.0133841378348],[7.0306225,49.24816263,317.430899483817],[7.03058518,49.2481214,317.90706961495533],[7.03054923,49.24807488,318.4262215750558],[7.03052866,49.2480317,319.0613272530692],[7.0304825,49.24799144,319.3852800641741],[7.03041316,49.24795355,319.7723650251116],[7.03036142,49.24791612,320.2081386021205],[7.03031623,49.2478761,320.80221121651783],[7.03025383,49.24784414,321.27772303989957],[7.0302071,49.24779222,321.7499520438058],[7.03016066,49.24775467,321.87891932896207],[7.0301195,49.24771722,321.90077427455356],[7.03007971,49.2476695,321.7088187081473],[7.03003251,49.24763055,321.5461687360491],[7.02997086,49.24760338,321.3180149623326],[7.0299218,49.2475651,321.15384347098217],[7.02986625,49.24752868,321.13648768833707],[7.02983466,49.24747777,320.88537161690846],[7.02978384,49.24743242,320.80147443498885],[7.02974693,49.24739328,320.71068899972096],[7.02974041,49.24734329,320.5761239188058],[7.02972957,49.24728509,320.4035382952009],[7.02970169,49.2472322,320.2512512207031],[7.02967641,49.24718209,320.18111310686385],[7.02963854,49.24713733,320.2482604980469],[7.02962869,49.24707652,320.2537275041853],[7.0296216,49.24702718,320.3396998814174],[7.02958405,49.24698684,320.54344395228793],[7.02957102,49.2469319,320.75475638253346],[7.02954983,49.24687575,320.99349539620533],[7.02952285,49.2468323,321.1172659737723],[7.02949136,49.24679178,321.7150617327009],[7.02947646,49.24674483,322.56409127371654],[7.02945859,49.24669574,323.6156093052455],[7.02942032,49.24664627,324.70711408342635],[7.02940968,49.24660078,326.04000418526783],[7.02937097,49.2465613,327.41173880440846],[7.02936686,49.24651045,328.6289716448103],[7.02933786,49.24646956,329.84521484375],[7.02930331,49.24642357,330.9351021902902],[7.02925782,49.24638901,332.1315699986049],[7.02924222,49.2463438,333.2283455984933],[7.02921877,49.24629513,334.325430733817],[7.02919101,49.24624969,335.44553920200894],[7.02917002,49.24620124,336.56588309151783],[7.02914472,49.24615397,337.216544015067],[7.02908747,49.24610734,337.57894461495533],[7.02903507,49.24606941,337.7692391531808],[7.02896017,49.24603786,337.78210885184154],[7.02889779,49.24601011,337.6826738630022],[7.02885076,49.24597193,337.5593959263393],[7.02880698,49.24592447,337.58426339285717],[7.02876213,49.24588845,337.554922921317],[7.02872096,49.24583616,337.77870396205356],[7.02864672,49.24580518,337.8835754394531],[7.02859384,49.24577295,338.0456848144531],[7.02856236,49.24572573,338.23343767438615],[7.02853146,49.24567683,338.27904837472096],[7.02851145,49.24562287,338.2973894391741],[7.02846798,49.24557568,338.35835920061385],[7.02846173,49.24552238,338.6426478794643],[7.02844931,49.24547091,338.90321132114957],[7.02844096,49.2454214,339.3793422154018],[7.02842886,49.24537634,339.8931623186384],[7.02844129,49.24532676,340.53627232142856],[7.0284522,49.2452791,341.1167776925223],[7.02844416,49.24522879,341.7299237932478],[7.02848916,49.24518278,342.26900373186385],[7.02854905,49.24514361,342.7682407924107],[7.02860524,49.24511191,343.258536202567],[7.02863945,49.24506087,343.7925240652902],[7.02868299,49.2450223,344.4308820452009],[7.02875401,49.24498564,345.0491638183594],[7.02882626,49.24496053,345.734139578683],[7.02889854,49.24494809,346.30338396344865],[7.02896386,49.24492789,347.0616455078125],[7.02903368,49.24490483,347.7806396484375],[7.02908866,49.24487554,348.56129673549106],[7.02914526,49.24484358,349.282967703683],[7.02921983,49.24483441,350.1049543108259],[7.02930469,49.24483022,350.94408743722096],[7.02937631,49.24482596,351.7566920689174],[7.02944771,49.24482747,352.7671116420201],[7.02952691,49.24482483,353.661376953125],[7.02958745,49.24479721,354.5801914760045],[7.0296331,49.24475401,355.3209446498326],[7.02967637,49.24471699,356.02783639090404],[7.02972213,49.24468166,356.5651375906808],[7.02974804,49.24462601,357.06819806780135],[7.02978656,49.24456976,357.3258056640625],[7.02983901,49.24453393,357.3857945033482],[7.02989693,49.24448736,357.165762765067],[7.02994069,49.2444519,356.9619358607701],[7.02999365,49.24440354,356.8166983468192],[7.03003747,49.24436581,356.61645071847096],[7.03009221,49.24433067,356.5310276576451],[7.03012998,49.24427534,356.4352242606027],[7.03013976,49.24421917,356.4845188685826],[7.03012444,49.24417098,356.36258806501115],[7.03010228,49.24412066,356.49354771205356],[7.03005283,49.24407359,356.67013113839283],[7.03002654,49.24403065,356.8433096749442],[7.03001622,49.24398514,356.94556100027904],[7.03000228,49.2439382,357.21553693498885],[7.02997633,49.2438861,357.63021414620533],[7.02993684,49.24384781,358.19854736328125],[7.02990594,49.24380405,358.51460920061385],[7.02984827,49.24376677,358.49219185965404],[7.02982003,49.24372249,358.57666015625],[7.02982023,49.24367452,358.4587925502232],[7.02979447,49.24362787,358.10638427734375],[7.02976581,49.24358678,357.62255859375],[7.02974428,49.24353607,357.3034406389509],[7.02975429,49.24348795,356.821036202567],[7.02971312,49.24342467,356.36720057896207],[7.02969198,49.24336604,356.171875],[7.02967052,49.24332307,355.9494105747768],[7.0296538,49.24326717,355.6372331891741],[7.02966023,49.24321462,355.1432538713728],[7.02966137,49.24315818,354.53431483677457],[7.02965472,49.24310709,354.2167663574219],[7.02963416,49.24304402,353.97228567940846],[7.02960261,49.24299055,353.63122994559154],[7.02958161,49.24294055,353.44505528041293],[7.02957231,49.24287581,353.3779514857701],[7.02955343,49.24282839,353.3509739467076],[7.02955501,49.24276599,353.2930646623884],[7.02955103,49.24269785,353.1916067940848],[7.02953347,49.24264973,353.0731506347656],[7.02951709,49.24260298,352.8212236676897],[7.02950635,49.24255174,352.65808541434154],[7.02950564,49.24249875,352.5725315638951],[7.02950178,49.24244463,352.68763950892856],[7.02949384,49.242394,352.7890319824219],[7.02948397,49.2423411,352.81099591936385],[7.02946113,49.24229088,352.8432181222098],[7.02941964,49.24224108,352.7247009277344],[7.02938931,49.24219941,352.51563807896207],[7.02936221,49.24214732,352.3468322753906],[7.02933586,49.24209511,352.2699454171317],[7.02930659,49.24204209,352.11815098353793],[7.0292885,49.24199053,351.8432050432478],[7.02926865,49.24194052,351.46412440708707],[7.02925297,49.24189023,351.297598702567],[7.02923716,49.24184263,351.0256609235491],[7.02923046,49.24179635,350.65588814871654],[7.02921806,49.24174862,350.4028625488281],[7.02916209,49.24170899,350.25404575892856],[7.02907343,49.24170399,350.106680733817],[7.02905824,49.24175056,350.31551252092635],[7.02914555,49.24169595,350.7043936593192],[7.02918998,49.24165135,351.12154279436385],[7.029241,49.24161653,351.44137137276783],[7.02931061,49.24159374,351.67626953125],[7.02938787,49.24158129,351.98614501953125],[7.02945975,49.24156044,352.4253845214844],[7.02952053,49.24153907,352.90233939034596],[7.02957927,49.24151085,353.261221749442],[7.02965501,49.24148808,353.7039271763393],[7.02972439,49.241461,354.1194850376674],[7.02979302,49.24143593,354.4544023786272],[7.02985425,49.24139955,354.73494611467635],[7.0299127,49.24136983,354.9986310686384],[7.0299802,49.24133429,355.0414079938616],[7.03005131,49.24131025,355.0087890625],[7.03012915,49.24129075,354.96325247628346],[7.03019914,49.24126953,354.876229422433],[7.03026513,49.24124997,354.7237025669643],[7.03032768,49.24122389,354.7582266671317],[7.0304045,49.24121642,354.6786106654576],[7.03047802,49.24122742,354.590567452567],[7.03054106,49.24126287,354.4403860909598],[7.03059201,49.24129376,354.27879115513394],[7.03066851,49.24130672,354.2804391043527],[7.03070894,49.2413492,354.27565220424106],[7.0307908,49.24135133,354.34620884486606],[7.03085887,49.24137593,354.4753635951451],[7.03092709,49.24139417,354.57667323521207],[7.03100971,49.24139558,354.7752467564174],[7.03108568,49.24144099,355.07924107142856],[7.03116255,49.24147548,355.4987008231027],[7.03123647,49.24151024,356.00537109375],[7.03129918,49.24154332,356.39355904715404],[7.03136857,49.24156218,356.9625156947545],[7.03143974,49.24157789,357.495596749442],[7.03150855,49.24159655,357.92562430245533],[7.03157329,49.24161997,358.32203892299106],[7.03164234,49.24165681,358.556893484933],[7.0317102,49.24170794,358.68660627092635],[7.03174728,49.24175418,358.8086504255022],[7.0317967,49.24179905,358.85938807896207],[7.0318471,49.24184484,358.82223074776783],[7.03189743,49.24188989,358.78316824776783],[7.03195444,49.24192444,358.7183925083705],[7.03201373,49.24196412,358.7735508510045],[7.03206185,49.24200875,358.82277134486606],[7.03211488,49.24206158,358.8054504394531],[7.03217572,49.24210143,358.9293954031808],[7.03224367,49.24213901,359.12923758370533],[7.03231173,49.24217826,359.5302036830357],[7.03238611,49.24220927,360.0238473074777],[7.03244016,49.24224,360.6822771344866],[7.03249212,49.24229506,361.28651210239957],[7.03253834,49.24233867,361.87697056361606],[7.03260482,49.24236888,362.5932094029018],[7.03268994,49.2423891,363.1855163574219],[7.03276851,49.24242138,363.5694013323103],[7.03281823,49.24246519,363.8875427246094],[7.03283886,49.24250941,364.02345057896207],[7.03287178,49.24255784,364.1735403878348],[7.03292249,49.24260155,364.2251761300223],[7.03298085,49.24264293,363.91957310267856],[7.03301065,49.24269037,363.6096627371652],[7.03303365,49.24274808,363.456290108817],[7.03307305,49.24279479,363.35947963169644],[7.03311109,49.24283503,363.1711992536272],[7.03316435,49.24287872,363.2487051827567],[7.03316873,49.2429353,363.2908848353795],[7.03319921,49.24298307,363.1116507393973],[7.03326833,49.24301548,362.9864807128906],[7.03330295,49.24306662,362.861572265625],[7.03330132,49.24312544,362.6820853097098],[7.03333774,49.2431656,362.7911594935826],[7.03338426,49.24320118,362.96356201171875],[7.03340726,49.24324366,363.29991367885043],[7.03343597,49.24328923,363.8667297363281],[7.03346126,49.24333651,364.411629813058],[7.03349055,49.24338197,364.60879952566967],[7.03351769,49.24343493,364.83764212472096],[7.03355753,49.2434841,365.0327410016741],[7.03363151,49.24350802,365.1155918666295],[7.03371266,49.24352891,365.3092346191406],[7.03377871,49.24356296,365.7560076032366],[7.03381956,49.24360866,366.40014212472096],[7.03385352,49.24364883,367.3276803152902],[7.03390501,49.24368944,368.2839093889509],[7.0339863,49.24370214,369.1598641531808],[7.03405173,49.24373839,370.0844072614397],[7.03410364,49.24377702,370.9407653808594],[7.03415378,49.24380954,371.885009765625],[7.03420182,49.24384678,372.89920915876115],[7.03425642,49.24389031,374.1033194405692],[7.03429202,49.24393191,375.2609340122768],[7.03430702,49.24398741,376.5632760184152],[7.03432636,49.24403513,377.94710867745533],[7.03437379,49.24408698,379.33189174107144],[7.03444025,49.24411858,380.59997122628346],[7.03449867,49.24414993,382.04891531808033],[7.0345628,49.24417712,383.43197195870533],[7.03463898,49.2441874,384.51998029436385],[7.03471314,49.24417967,385.41957310267856],[7.03479379,49.24415291,386.35287039620533],[7.03486298,49.24411134,386.95211356026783],[7.03490874,49.24406383,387.2941109793527],[7.0349449,49.24402136,387.27376883370533],[7.0350039,49.2439773,387.1380353655134],[7.03502987,49.24392475,386.89007568359375],[7.03506668,49.24388241,386.42567661830356],[7.03511693,49.24383815,385.8951721191406],[7.03513409,49.24378968,385.074715750558],[7.03513943,49.24373956,384.465340750558],[7.03514827,49.24368009,383.6722891671317],[7.03515188,49.24362791,382.8356236049107],[7.03515993,49.24357205,382.3591570172991],[7.03519541,49.24353221,382.0296064104353],[7.03521429,49.24348767,381.5709533691406],[7.03522885,49.24344309,381.40269688197543],[7.03525463,49.24339382,381.4394313267299],[7.03527445,49.24334244,381.85560389927457],[7.03529238,49.24328781,382.3521946498326],[7.03531773,49.24324288,382.63710239955356],[7.0353584,49.24319351,382.96898106166293],[7.03539946,49.24314719,383.1392299107143],[7.03544394,49.24310423,383.4710126604353],[7.03548676,49.24305506,383.57186017717635],[7.03554003,49.24301823,383.6841343470982],[7.03561389,49.2429984,383.80211094447543],[7.0356729,49.24295896,383.9259294782366],[7.03572732,49.2429281,383.9014630998884],[7.03577236,49.24289316,383.825692313058],[7.03584768,49.24286737,383.74269321986606],[7.03591889,49.24284944,383.63951328822543],[7.03598566,49.24282728,383.4680611746652],[7.03605243,49.24280168,383.2408883231027],[7.03611434,49.24278167,383.32283673967635],[7.03618461,49.2427589,383.2273428780692],[7.03625025,49.24273956,383.16636875697543],[7.0363376,49.24273399,383.3446044921875],[7.03641627,49.2427343,383.487313406808],[7.03648833,49.24273049,383.59237234933033],[7.03655923,49.24272837,383.6447317940848],[7.03663525,49.24273558,383.6828046526228],[7.03670554,49.24270978,383.7767551967076],[7.0367824,49.24270881,383.9600394112723],[7.03685843,49.24272398,384.1175319126674],[7.03693235,49.24272749,384.2276393345424],[7.03701077,49.24273432,384.2542201450893],[7.03708026,49.24275157,384.3210710797991],[7.03715066,49.24274765,384.3647199358259],[7.03723367,49.24275807,384.63746425083707],[7.03730296,49.24275643,385.15013340541293],[7.03738869,49.24276696,385.4628644670759],[7.0374721,49.24275628,385.72471400669644],[7.03754647,49.24274738,385.79886300223217],[7.03762227,49.24274454,385.9871564592634],[7.03770641,49.24274779,386.08675275530135],[7.03777561,49.24276851,386.1450892857143],[7.03784598,49.24278721,386.0216369628906],[7.03792114,49.24279809,386.0124206542969],[7.03798708,49.24282181,385.9013105119978],[7.03806481,49.24284837,385.7976858956473],[7.03813385,49.24286431,385.5883483886719],[7.03820574,49.24287615,385.1743905203683],[7.03828793,49.24287993,384.67381504603793],[7.03836351,49.24290135,384.2121102469308],[7.03841748,49.24294687,383.65008544921875],[7.03846668,49.24298508,383.0838187081473],[7.03852442,49.24302582,382.8606175013951],[7.03859652,49.24303022,382.549551827567],[7.03867019,49.24303075,382.2263706752232],[7.03874675,49.24305636,381.98657662527904],[7.03881418,49.24308006,381.9642639160156],[7.03886446,49.24311511,381.93201991489957],[7.03892306,49.24314528,382.01098196847096],[7.03901302,49.24315983,382.16702706473217],[7.03911522,49.24316963,382.3177272251674],[7.03919179,49.24318554,382.60928780691967],[7.03926079,49.24319695,382.90555245535717],[7.03932543,49.24321881,383.13037109375],[7.03937778,49.24324985,383.4761526925223],[7.03943188,49.24327778,384.0440935407366],[7.03948457,49.24330836,384.3074951171875],[7.03953707,49.24334484,384.44408743722096],[7.03959807,49.24337372,384.5389883858817],[7.03965939,49.24340119,384.4976588657924],[7.03972012,49.24343784,384.43969290597096],[7.03978004,49.24346693,384.3437282017299],[7.03984304,49.24349322,384.4047546386719],[7.03990625,49.24352828,384.6234218052455],[7.03996455,49.24356681,385.0180184500558],[7.04002613,49.24360252,385.44677734375],[7.04009027,49.2436401,385.96571568080356],[7.0401458,49.24367743,386.36368669782365],[7.04020785,49.24370465,386.7400425502232],[7.04028132,49.24373466,386.914071219308],[7.04034828,49.24376571,387.209969656808],[7.04042874,49.24380306,387.5948573521205],[7.04051358,49.24384009,388.0902317592076],[7.04059213,49.24386859,388.73485892159596],[7.04066199,49.24389874,389.3866402762277],[7.04072116,49.24393702,389.9124319893973],[7.04078525,49.24397205,390.1391863141741],[7.04084929,49.24401114,390.0575169154576],[7.04091453,49.24405051,389.7738821847098],[7.04098032,49.2440833,389.32362583705356],[7.04104509,49.2441096,388.9204624720982],[7.04111106,49.24412304,388.38466099330356],[7.0412049,49.24415708,387.8585510253906],[7.04128737,49.24418116,387.2376055036272],[7.04137337,49.24419823,386.41707502092635],[7.04145404,49.24421435,385.60804966517856],[7.04153149,49.24422442,385.04307774135043],[7.04162088,49.24423659,384.27425711495533],[7.04169691,49.24423757,383.3050057547433],[7.04177294,49.24423713,382.5041198730469],[7.0418497,49.24422843,381.86999947684154],[7.04193283,49.24422788,381.5196838378906],[7.04202569,49.24420991,381.2769034249442],[7.04210442,49.24419407,381.0534449986049],[7.04217263,49.24417863,380.73449271065846],[7.04224808,49.24416332,380.4886910574777],[7.04232205,49.24413615,380.16134207589283],[7.04239745,49.24413462,380.04886300223217],[7.04246698,49.24415419,380.12367030552457],[7.04254601,49.24414945,380.1780482700893],[7.04261883,49.24415241,380.1157444545201],[7.0426902,49.24416649,380.278573172433],[7.04277443,49.24417473,380.66866629464283],[7.04285707,49.24415923,380.8896048409598],[7.04293113,49.2441406,381.13209751674106],[7.0430091,49.24411681,381.3020978655134],[7.0430808,49.244124,381.39210728236606],[7.04315619,49.24410484,381.81995064871654],[7.04324434,49.24410637,382.27796718052457],[7.04333077,49.24409079,382.71565900530135],[7.0434177,49.24407088,383.2640075683594],[7.04348674,49.24405634,383.6527317592076],[7.04356336,49.24405158,384.0828421456473],[7.04364781,49.2440293,384.4690159388951],[7.04373002,49.2440051,384.7968270438058],[7.04381389,49.24399377,385.16322544642856],[7.04388854,49.24396985,385.23620169503346],[7.04396135,49.24395566,385.29307774135043],[7.04403111,49.24395063,385.0673566545759],[7.04410212,49.24393043,384.7509983607701],[7.04417215,49.24391069,384.36971609933033],[7.04425816,49.24391324,383.7495422363281],[7.04433567,49.24392897,383.2514430454799],[7.04440519,49.24392732,382.9963902064732],[7.04448636,49.24392486,382.6995108468192],[7.04455574,49.24391838,382.53785487583707],[7.0446235,49.24393829,382.2563781738281],[7.04461125,49.2439912,381.9851728166853],[7.04455949,49.24403004,381.59730747767856],[7.04456161,49.24407548,381.3217337472098],[7.04464046,49.2440333,381.18607439313615],[7.04472454,49.24406672,381.0643877301897],[7.04479367,49.2440827,381.0584237234933],[7.04486613,49.24410335,381.24548775809154],[7.04492182,49.24413994,381.60494559151783],[7.04499974,49.2441622,381.92532784598217],[7.04505171,49.24419623,382.2053484235491],[7.04513489,49.24419729,382.3408682686942],[7.0452142,49.24420934,382.3239484514509],[7.04528073,49.24423643,382.2347935267857],[7.04535728,49.24425566,382.2283935546875],[7.04546084,49.24427294,382.3099583217076],[7.04553078,49.24430792,382.41446358816967],[7.04559521,49.24432724,382.24227469308033],[7.04567593,49.24433036,382.1269313267299],[7.04576931,49.24433784,382.1271318708147],[7.04585418,49.24435638,382.1772896902902],[7.04593034,49.24436788,381.98645455496654],[7.04601551,49.24438029,381.7332763671875],[7.04609298,49.24440045,381.4609113420759],[7.04616159,49.24442884,381.1675240652902],[7.04624169,49.24445108,380.7397155761719],[7.04633011,49.24446746,380.4278259277344],[7.04641719,49.24448907,380.1513192313058],[7.04650441,49.2445213,379.96056692940846],[7.04660679,49.24454748,379.80902099609375],[7.04670103,49.24456705,379.6736973353795],[7.04680261,49.24459148,379.66622052873885],[7.04690932,49.24462503,379.572518484933],[7.04702286,49.24466001,379.2992466517857],[7.04712889,49.24470378,378.9773210797991],[7.04722206,49.24474657,378.67782156808033],[7.0473166,49.24477049,378.1513192313058],[7.0474094,49.24479614,377.53246634347096],[7.04749403,49.24482556,376.725341796875],[7.04758741,49.24485518,375.89156232561385],[7.04770785,49.2448893,374.9560808454241],[7.04780881,49.24492951,374.02239990234375],[7.04789749,49.24497234,372.9540318080357],[7.04798278,49.2450124,371.7650887625558],[7.04807656,49.24504286,370.5040283203125],[7.04816515,49.24504961,369.12888881138394],[7.04826745,49.24506849,367.7007533482143],[7.048363,49.24508946,366.4079110281808],[7.04845631,49.24510424,365.2536839076451],[7.04855105,49.24511794,364.2017299107143],[7.04865001,49.24513077,363.3495396205357],[7.04875638,49.2451413,362.73321533203125],[7.04886032,49.2451481,362.26334054129467],[7.04897139,49.24516509,361.9886213030134],[7.04907344,49.24518397,361.7703377859933],[7.04918406,49.2451962,361.56881277901783],[7.04930349,49.24520197,361.30862862723217],[7.04941303,49.24519931,361.0168151855469],[7.04951685,49.24519578,360.69876970563615],[7.0496207,49.24520073,360.24060494559154],[7.04972735,49.24520364,359.7608947753906],[7.04983101,49.24519903,359.29134259905135],[7.04991904,49.2452031,358.7143816266741],[7.04997871,49.24523076,358.0673348563058],[7.05005429,49.24524482,357.4800240652902],[7.05012624,49.24526153,356.7686767578125],[7.05020537,49.24527968,355.79517037527904],[7.05028971,49.24530075,354.7274605887277],[7.05036858,49.24531897,353.7337733677455],[7.05045145,49.24531606,352.7211696079799],[7.05052277,49.24530898,351.8235560825893],[7.05059486,49.24532007,351.1095450265067],[7.05064731,49.24535853,350.5704040527344],[7.05071118,49.24539803,350.2327619280134],[7.050767,49.24544186,350.03133719308033],[7.05081289,49.24547613,350.001456124442],[7.05087555,49.24551718,350.0577174595424],[7.05094741,49.24554223,350.14122227260043],[7.05100334,49.24558665,350.1911097935268],[7.05105036,49.24562038,350.24949863978793],[7.05109175,49.24566529,350.48754446847096],[7.05113074,49.24570607,350.79176548549106],[7.05117033,49.24575019,351.227286202567],[7.05116688,49.24579993,351.5767909458705],[7.0511813,49.24585492,351.53550938197543],[7.0511849,49.24590881,351.31888689313615],[7.05116317,49.24595648,351.1337629045759],[7.05113878,49.24600756,350.9295654296875],[7.05109433,49.24604422,350.47454833984375],[7.05106178,49.24609565,349.94825962611606],[7.05103747,49.24613812,349.37113298688615],[7.05101832,49.24618154,348.74173845563615],[7.05098693,49.2462337,347.901620047433],[7.05095868,49.24628261,346.91671316964283],[7.05093257,49.24634273,345.65848650251115],[7.05090919,49.24638543,344.2810581752232],[7.05090141,49.24643809,342.6170741489955],[7.05088479,49.24648308,340.98801967075894],[7.05086469,49.24653763,339.7457275390625],[7.05088558,49.24658925,338.5574253627232],[7.05090753,49.24665066,337.2819170270647],[7.05092347,49.24670179,335.75948660714283],[7.0509433,49.24675505,334.45546177455356],[7.05096274,49.24680622,333.0679364885603],[7.0509706,49.24685984,331.75296456473217],[7.05098708,49.24690631,330.5622297014509],[7.05100397,49.24695949,329.77881295340404],[7.05101516,49.24702197,329.3495091029576],[7.05103065,49.24708894,329.1771894182478],[7.05105827,49.2471588,329.0590602329799],[7.05107993,49.24722648,329.0388619559152],[7.0511046,49.24729236,328.9873352050781],[7.05111663,49.24735038,328.85107421875],[7.05111969,49.24740508,328.6861049107143],[7.05110801,49.24746815,328.4156406947545],[7.05107983,49.24753158,328.363525390625],[7.05104594,49.24758523,328.40403529575894],[7.05102029,49.2476338,328.491219656808],[7.05100032,49.24768504,328.5476771763393],[7.05097317,49.24774474,328.4782017299107],[7.05095132,49.24780664,328.2896641322545],[7.05094152,49.24786648,327.8633248465402],[7.05095389,49.24792439,327.5461207798549],[7.05096098,49.24797162,327.3125784737723],[7.05090958,49.24802492,326.8284694126674],[7.05089673,49.24807412,326.3850359235491],[7.05091498,49.24812183,326.00158255440846],[7.05089516,49.24816891,325.68469674246654],[7.05086515,49.24821185,325.55821446010043],[7.05082751,49.24826155,325.49137224469865],[7.05078333,49.24830124,325.20667811802457],[7.05071769,49.24833109,324.7235020228795],[7.05063945,49.24833998,324.31980678013394],[7.05056774,49.24836304,323.8800789969308],[7.05047831,49.24836527,323.27567400251115],[7.0504041,49.24835946,322.77831595284596],[7.05033884,49.24839006,322.2664140973772],[7.05026644,49.2484103,321.72227696010043],[7.05018258,49.2484135,321.48852975027904],[7.05011531,49.24842502,321.42240251813615],[7.05003633,49.24841482,321.3247593470982],[7.04996116,49.24842234,321.30184500558033],[7.04988795,49.24841083,321.1597333635603],[7.0498146,49.2483849,320.9022652762277],[7.04975057,49.24836113,320.69151088169644],[7.04966615,49.24835416,320.7816903250558],[7.0495949,49.24833974,320.69566563197543],[7.04953375,49.2483023,320.5613228934152],[7.04945994,49.2482814,320.34889439174106],[7.04938473,49.24826076,319.97389003208707],[7.04931395,49.24826046,319.46439470563615],[7.04924167,49.24827039,318.8709150041853],[7.04916514,49.24825026,318.1609540666853],[7.04912198,49.24821255,317.28560529436385],[7.04910006,49.24815525,316.65982491629467],[7.04907055,49.24810707,316.1171351841518],[7.04901393,49.2480606,315.59092930385043],[7.04894791,49.24803745,315.13216727120533],[7.04888014,49.24802215,314.8221522739955],[7.04881805,49.24797939,314.1844177246094],[7.04875955,49.24794323,313.64500209263394],[7.04869462,49.24791436,313.27166748046875],[7.0486252,49.24790468,313.3012259347098],[7.04856641,49.24788114,313.4613298688616],[7.04850292,49.2478537,313.65258353097096],[7.04840584,49.2478511,314.01974051339283],[7.048309,49.2478426,314.625741141183],[7.04823881,49.24782958,315.2283238002232],[7.04816343,49.24780795,315.8562709263393],[7.04808451,49.24780073,316.3801007952009],[7.04801323,49.24779782,317.0696062360491],[7.0479442,49.24781144,317.81638881138394],[7.04786198,49.24781563,318.41495186941967],[7.04778537,49.24781526,319.2103489467076],[7.04770551,49.24779178,320.0299333844866],[7.04764352,49.24776996,320.7249494280134],[7.04757335,49.24776792,321.18470982142856],[7.04750221,49.24775526,321.8352312360491],[7.0474342,49.24773766,322.62823486328125],[7.04736294,49.2477477,323.3047877720424],[7.04729313,49.24775682,323.8524475097656],[7.04722419,49.24774691,324.28392246791293],[7.0471503,49.24775209,324.1360124860491],[7.0470826,49.24773434,323.5001918247768],[7.0469915,49.24774088,322.6190272739955],[7.04689815,49.24773175,321.7159946986607],[7.04683078,49.24774298,320.9168701171875],[7.04682861,49.2477896,320.0124947684152],[7.04686543,49.24784212,319.1822814941406],[7.04691576,49.24790072,318.5289611816406],[7.04695415,49.2479505,317.9373561314174],[7.04697837,49.24800141,317.2512468610491],[7.04699431,49.24805511,316.39868600027904],[7.04698489,49.2481009,315.49005126953125],[7.0469903,49.24814953,314.57562255859375],[7.04700495,49.24820071,313.79229736328125],[7.04702098,49.24825167,313.27958025251115],[7.04703797,49.24829716,313.1031712123326],[7.04705543,49.24834109,313.1129063197545],[7.04707888,49.2483926,313.09603445870533],[7.04709905,49.24844858,313.1480800083705],[7.0471248,49.24849535,313.34183175223217],[7.04714512,49.24854015,313.20680454799106],[7.04715598,49.24858482,312.7961948939732],[7.04721326,49.2486214,312.1585388183594],[7.04726908,49.24865428,311.47066824776783],[7.04732439,49.24869737,310.9083251953125],[7.04737569,49.24873883,310.45381818498885],[7.04745229,49.24875045,310.1710859026228],[7.04752855,49.24877324,309.8793640136719],[7.04756625,49.24882164,309.6217258998326],[7.04758417,49.24886784,309.43351091657365],[7.04762769,49.24891415,309.1394740513393],[7.04767153,49.24895504,308.75851004464283],[7.04774198,49.24899126,308.1520560128348],[7.04776757,49.24904016,307.48451450892856],[7.04777436,49.24908863,307.0143127441406],[7.04783949,49.24912697,306.66263253348217],[7.04789963,49.24915677,306.4680480957031],[7.04793083,49.24921052,306.3555690220424],[7.04794593,49.24926516,306.2380153111049],[7.04796937,49.24932148,305.8264596121652],[7.04802458,49.24936723,305.21815708705356],[7.04806952,49.2494024,304.6580897739955],[7.04808436,49.24945441,303.9659162248884],[7.04809982,49.24950943,303.31119210379467],[7.04813855,49.24954993,302.6926007952009],[7.04821705,49.24956717,302.10872977120533],[7.04830415,49.24957549,301.6085684640067],[7.04835141,49.24962541,301.09655325753346],[7.04847072,49.2496807,300.7031903948103],[7.04851386,49.24971749,300.3821323939732],[7.04857053,49.24976107,299.9348406110491],[7.04864054,49.24978607,299.3363037109375],[7.04869884,49.24981452,298.72068568638394],[7.04875383,49.24984906,298.4137965611049],[7.0488169,49.2498775,298.06251743861606],[7.04888899,49.24990934,297.5884486607143],[7.04893471,49.24994874,297.26574271065846],[7.04900859,49.24997878,296.821533203125],[7.04908085,49.25000891,296.41746303013394],[7.04914531,49.25003459,296.1150425502232],[7.04918579,49.25008342,295.8623788016183],[7.04922404,49.25012701,295.5918622698103],[7.04926338,49.25017024,295.17215837751115],[7.049317,49.25020906,294.70298985072543],[7.04935896,49.25025618,294.2838788713728],[7.04938513,49.25030622,293.7961905343192],[7.04942469,49.25034523,293.33459908621654],[7.04946705,49.25038598,292.8518633161272],[7.04950016,49.25042709,292.4605015345982],[7.04953704,49.25047427,292.2002258300781],[7.04958953,49.25050417,292.02512904575894],[7.04965167,49.25054186,291.8619951520647],[7.04970444,49.25058066,291.7412806919643],[7.04976904,49.25061983,291.5478210449219],[7.04983436,49.25065286,291.4228820800781],[7.04990467,49.25067427,291.2859104701451],[7.04998405,49.25069582,291.20874459402904],[7.05004884,49.25071245,291.2427760532924],[7.0501139,49.25073126,291.3840898786272],[7.05019142,49.25075094,291.4737984793527],[7.05026695,49.25076789,291.514151436942],[7.05035196,49.25078147,291.5068620954241],[7.0504237,49.25080326,291.3507646833147],[7.05049489,49.25082534,291.16978672572543],[7.05057551,49.25083934,290.88616943359375],[7.05068659,49.25088023,290.5193394252232],[7.05074952,49.25090449,290.0218593052455],[7.0508216,49.25092909,289.53599766322543],[7.05088218,49.25095643,289.0115443638393],[7.05095829,49.25098035,288.58956473214283],[7.05100317,49.25101716,288.1984601702009],[7.05104251,49.25105625,287.8559134347098],[7.05108652,49.25109499,287.4271153041295],[7.051166,49.25112134,287.2035566057478],[7.05124062,49.25112227,287.0612269810268],[7.05131825,49.25114454,286.992928641183],[7.05138064,49.25118747,286.9799368722098],[7.05146239,49.25120778,287.0857849121094],[7.05153452,49.25121354,287.18275233677457],[7.05161845,49.25123249,287.28600638253346],[7.05169532,49.25123815,287.48653738839283],[7.05177149,49.2512498,287.7826581682478],[7.05172712,49.25120872,288.05784824916293],[7.05178514,49.251254,288.3529052734375],[7.05185896,49.2512727,288.5929739815848],[7.05193767,49.25126922,288.62820870535717],[7.05201252,49.25128435,288.6807338169643],[7.05208275,49.25130284,288.61912318638394],[7.05215081,49.25133122,288.3865225655692],[7.05222859,49.2513533,288.18324061802457],[7.05224336,49.25139748,288.081045968192],[7.05231528,49.25141658,287.8831263950893],[7.0523816,49.25143146,287.6681823730469],[7.05242234,49.25139462,287.6138654436384],[7.0524791,49.25144365,287.5633021763393],[7.05241124,49.25146149,287.4871085030692],[7.05250248,49.25148133,287.4474182128906],[7.05256688,49.25150481,287.2439488002232],[7.0526248,49.25152945,286.981680733817],[7.05267281,49.2515716,286.9140145438058],[7.05275507,49.25160726,287.02579607282365],[7.05284218,49.25161599,287.0723135811942],[7.0529242,49.2516151,287.21749441964283],[7.05297901,49.25169253,287.334219796317],[7.05298643,49.25174481,287.44906180245533],[7.05296415,49.25178874,287.60716029575894],[7.05296681,49.2518369,287.91097586495533],[7.05285533,49.2519106,288.17110334123885],[7.05283302,49.25195364,288.39627947126115],[7.05283315,49.25199921,288.59106881277904],[7.0528082,49.25204992,288.6372288295201],[7.05277306,49.2520888,288.8334742954799],[7.052763,49.25213891,289.00721522739957],[7.05275207,49.25219364,288.89327566964283],[7.05273502,49.25224973,288.7019478934152],[7.05271477,49.25229864,288.6940482003348],[7.05270193,49.25234304,288.6763174874442],[7.0526855,49.25240356,288.5103105817522],[7.05265054,49.25245619,288.3305097307478],[7.05262075,49.25250789,288.0888017926897],[7.05257643,49.25255769,287.6588614327567],[7.05253562,49.25259585,287.20450265066967],[7.05253561,49.25265313,286.6576014927455],[7.05252786,49.25270494,286.4259033203125],[7.0525189,49.25277217,286.4178553989955],[7.0525194,49.25282003,286.3113577706473],[7.05253224,49.25287203,286.4747401646205],[7.0525268,49.25291913,286.66920689174106],[7.05252107,49.2529737,286.90753173828125],[7.05252707,49.25303376,286.84573800223217],[7.05252079,49.25308825,286.9040963309152],[7.0525137,49.25314027,287.0706133161272],[7.05252801,49.25318926,287.17249843052457],[7.05254,49.25324566,287.27673775809154],[7.05252775,49.25330227,287.40320260184154],[7.05251957,49.25335461,287.3738926478795],[7.0525174,49.25340806,287.35211181640625],[7.0525312,49.25346247,286.7498343331473],[7.05253733,49.25351003,285.98172869001115],[7.05254022,49.25355695,284.93297031947543],[7.05252096,49.25360883,283.79845755440846],[7.05249175,49.25365965,282.9946812220982],[7.05248043,49.25370402,282.14896501813615],[7.05249126,49.25375752,281.54764229910717],[7.05249831,49.25381217,280.86737060546875],[7.05249785,49.25387361,280.30981881277904],[7.05250836,49.25393478,279.90755789620533],[7.05251136,49.25398762,279.58935546875],[7.05251711,49.25403242,279.42928641183033],[7.05252094,49.25407837,279.55633544921875],[7.05253795,49.25412703,279.68838936941967],[7.05255617,49.25417949,279.9438258579799],[7.05260021,49.25423274,280.1232692173549],[7.05261899,49.25428185,280.4353942871094],[7.05263961,49.25434206,280.6902858189174],[7.05266463,49.25438947,280.7865295410156],[7.05268436,49.25443448,280.79514857700894],[7.05269952,49.25448382,280.7528860909598],[7.05272796,49.25453345,280.7039358956473],[7.05275376,49.25458624,280.52503749302457],[7.05277907,49.25463865,280.33243233816967],[7.0528163,49.25468715,279.7233101981027],[7.05286138,49.25473365,279.06939697265625],[7.0529318,49.25477219,278.6688145228795],[7.05298835,49.25480447,278.33424595424106],[7.05301383,49.25484872,277.98060389927457],[7.05300078,49.2548991,277.69483729771207],[7.05296443,49.2549383,277.4973362513951],[7.0530083,49.25489015,277.3129403250558],[7.05308094,49.25491465,277.16088431222096],[7.05302802,49.25484647,277.2124938964844],[7.05294644,49.25485156,277.1595546177455],[7.05290064,49.25490436,276.9674290248326],[7.05287332,49.25494628,276.72862025669644],[7.05283047,49.25499297,276.4442618233817],[7.05278058,49.25503441,276.43147931780135],[7.05271611,49.25505038,276.41992623465404],[7.05264219,49.25506294,276.1218566894531],[7.05256193,49.25506596,275.9601135253906],[7.05255719,49.25512263,275.86283220563615],[7.05255321,49.25517274,275.92346627371654],[7.05257085,49.25522371,276.2318681989397],[7.05262366,49.25527651,276.5479082380022],[7.05267099,49.25532305,276.97079031808033],[7.05271045,49.25537492,277.2496817452567],[7.05274234,49.25541601,277.75489589146207],[7.05277211,49.25546168,278.38482666015625],[7.05280916,49.25551823,279.0091465541295],[7.05286694,49.25554271,279.6096758161272],[7.05291561,49.25558127,280.28755841936385],[7.05295749,49.25562597,280.9218967982701],[7.05300397,49.25566156,281.47497122628346],[7.05306008,49.25570307,281.7223554338728],[7.0530969,49.25575778,282.31520298549106],[7.05313062,49.25581257,282.8753574916295],[7.05315313,49.25586122,283.3159702845982],[7.05316589,49.25591691,283.7363542829241],[7.05320004,49.25596526,283.9520002092634],[7.05323847,49.25600341,284.13033185686385],[7.05323813,49.25605686,284.00658743722096],[7.05323078,49.25611096,283.8416050502232],[7.05323842,49.25616255,283.62538364955356],[7.05324582,49.25622003,283.26966639927457],[7.05325873,49.25627339,282.9529506138393],[7.05325723,49.25632475,282.4601527622768],[7.05325317,49.25638306,281.8902064732143],[7.0532406,49.25643523,281.47738211495533],[7.05320825,49.25648646,280.8463657924107],[7.05316451,49.25652147,280.09261213030135],[7.05311565,49.25655427,279.28209141322543],[7.05307185,49.25659057,278.3664114815848],[7.05302512,49.25662608,277.603515625],[7.05297649,49.25665805,276.79473876953125],[7.052934,49.25669693,276.23434012276783],[7.05291051,49.25674866,275.5809631347656],[7.0529071,49.25679728,275.1048671177455],[7.05287453,49.2568441,274.9022696358817],[7.05285005,49.25689669,274.6059308733259],[7.05284141,49.2569422,274.8144967215402],[7.05282473,49.25699152,275.1405726841518],[7.05278699,49.25703214,275.298575265067],[7.05275295,49.25707446,275.47403826032365],[7.05272762,49.25711929,275.6017848423549],[7.05267172,49.25715867,275.8190220424107],[7.05261738,49.25720495,276.24373517717635],[7.05256334,49.25723439,276.53918892996654],[7.05247507,49.25724511,276.9963858468192],[7.05240539,49.25725131,277.6239449637277],[7.05232602,49.25726878,278.3466491699219],[7.05224782,49.25727377,278.95274571010043],[7.05220281,49.25730928,279.3870544433594],[7.05213011,49.25732068,279.79713657924106],[7.05204733,49.25733749,279.9851510184152],[7.05198588,49.25736188,280.1840122767857],[7.05192522,49.25739171,280.32849557059154],[7.05183935,49.25737998,280.4380362374442],[7.05176365,49.25738875,280.81600516183033],[7.05169195,49.25738018,281.3015790666853],[7.05161284,49.2573883,281.5963570731027],[7.051538,49.25740039,282.00638689313615],[7.05145497,49.25740842,282.2362365722656],[7.05138367,49.25742006,282.1979021344866],[7.05130212,49.25742111,282.19799368722096],[7.05123639,49.25743788,282.3315865652902],[7.05116189,49.25745392,282.4507271902902],[7.05108014,49.25744666,282.7037571498326],[7.05100199,49.25744528,282.78995622907365],[7.05092964,49.2574502,282.8130623953683],[7.0508405,49.2574574,283.01266043526783],[7.0507569,49.257469,283.24344744001115],[7.05067269,49.25749042,283.3664289202009],[7.05060973,49.25751373,283.41951642717635],[7.05054003,49.25753696,283.4998038155692],[7.05046603,49.25754997,283.5425589425223],[7.05039643,49.25756298,283.6171439034598],[7.05031467,49.25758745,283.80245535714283],[7.05024403,49.25759829,284.0660138811384],[7.05016087,49.25760543,284.3285348074777],[7.05008121,49.25762599,284.81129237583707],[7.05000692,49.25763333,285.2023707798549],[7.0499349,49.25763464,285.5885663713728],[7.04986063,49.25761638,286.03074863978793],[7.04977518,49.25761337,286.5214102608817],[7.0497036,49.25763867,286.8825029645647],[7.04963844,49.25765981,287.02280970982144],[7.04955153,49.25764521,286.8560093470982],[7.04948076,49.25763266,286.69200352260043],[7.04940572,49.25763474,286.46204921177457],[7.04933313,49.25761583,286.4085039411272],[7.04925642,49.25760701,286.3666338239397],[7.04918323,49.25759775,286.23931884765625],[7.04910813,49.25757214,286.08011736188615],[7.04904177,49.25753947,285.734375],[7.0489925,49.25749594,285.4198521205357],[7.04892158,49.2574698,285.23138427734375],[7.04885886,49.25744645,285.08740670340404],[7.04880322,49.25740407,285.1166774204799],[7.04873991,49.25738186,285.203622000558],[7.04868469,49.25734533,285.5269862583705],[7.0486289,49.25730549,286.1261683872768],[7.04856589,49.25727999,286.80992344447543],[7.04849773,49.25726601,287.52135794503346],[7.04840924,49.25724743,288.31250435965404],[7.04833043,49.2572471,289.0336347307478],[7.04825225,49.25723089,289.72257341657365],[7.0481762,49.25721182,290.412833077567],[7.04809946,49.25718673,291.14019775390625],[7.04804133,49.25716114,291.8406415666853],[7.04798116,49.25713075,292.4645080566406],[7.04791871,49.25709907,292.9965384347098],[7.04785451,49.25706365,293.29334803989957],[7.0478007,49.25702972,293.5404750279018],[7.04775466,49.25698048,293.8472464425223],[7.04769873,49.25694108,293.9715794154576],[7.04764379,49.25691098,294.14717755998885],[7.04759629,49.25686137,294.3538164411272],[7.04754144,49.25681994,294.4523010253906],[7.04749455,49.25677797,294.4137878417969],[7.0474315,49.25674771,294.3943830217634],[7.04735478,49.25673481,294.2650451660156],[7.04729345,49.25670254,293.9796142578125],[7.04723751,49.25666802,293.6799098423549],[7.04717088,49.25664019,293.42569405691967],[7.04712521,49.25660435,293.3494175502232],[7.04706575,49.25656902,293.55542428152904],[7.04699498,49.25654357,293.7938145228795],[7.0469202,49.25651187,293.83260672433033],[7.04686721,49.25646645,293.99957275390625],[7.0468235,49.25641858,294.14269583565846],[7.04677955,49.25638164,294.24996076311385],[7.04670976,49.25634072,294.1605006626674],[7.04664085,49.25631602,294.2726048060826],[7.04660184,49.25627739,294.2906276157924],[7.04658594,49.25622121,294.449959891183],[7.04659586,49.2561705,294.6716526576451],[7.04654039,49.25613826,294.9238586425781],[7.04646956,49.25614472,295.14574759347096],[7.04648234,49.25619512,295.01875959123885],[7.046547,49.25617743,294.86781093052457],[7.04654361,49.25612842,294.73669869559154],[7.04645868,49.25610547,294.55762154715404],[7.04639279,49.25611847,294.32213919503346],[7.04647059,49.25612389,294.07965087890625],[7.04644766,49.25607949,293.8592442103795],[7.04646408,49.25612377,293.62725830078125],[7.04639734,49.25611156,293.5117623465402],[7.04632536,49.25610012,293.6112147739955],[7.04636555,49.25614287,293.6068551199777],[7.04646441,49.25617449,293.7779279436384],[7.04653461,49.25612963,293.7351597377232],[7.046589,49.25609736,293.7787780761719],[7.04652128,49.25607368,294.05025373186385],[7.04643462,49.25607289,294.35262189592635],[7.04634684,49.25606449,294.6046404157366],[7.04627754,49.25604956,294.9690508161272],[7.04622313,49.25601763,295.23340279715404],[7.04615092,49.25599144,295.54390607561385],[7.04611173,49.25595262,295.7760532924107],[7.04605016,49.25591912,296.138680594308],[7.04602945,49.25586938,296.4170357840402],[7.04600371,49.25582516,296.7737557547433],[7.04596307,49.25577968,297.09351021902904],[7.04592369,49.2557311,297.4226728166853],[7.04589205,49.25568047,298.11234392438615],[7.04587018,49.255631,298.8346514020647],[7.04581633,49.25559035,299.6082981654576],[7.04574482,49.2555636,300.1782444545201],[7.04566217,49.25555613,300.77301025390625],[7.04559298,49.25558617,301.30650547572543],[7.0455062,49.25558025,302.0294451032366],[7.04542262,49.25558654,302.6413269042969],[7.04534877,49.25558979,303.1991489955357],[7.04527797,49.2555731,303.5288870675223],[7.04520094,49.25556434,303.6359427315848],[7.04514215,49.25553907,303.65403529575894],[7.0451327,49.25548639,303.9388950892857],[7.04514381,49.25543649,304.308846609933],[7.04514304,49.25538785,304.3818882533482],[7.0450594,49.25535952,304.4073399135045],[7.04496882,49.25535259,304.90342494419644],[7.04488528,49.25533791,305.82586669921875],[7.04480698,49.25533921,307.0299595424107],[7.04474111,49.25532455,308.43614414760043],[7.0446869,49.25529151,309.7790265764509],[7.04472773,49.25524369,311.04525320870533],[7.0447518,49.25519998,312.4184788295201],[7.04471807,49.25515464,313.7479727608817],[7.04471924,49.25510881,315.13407244001115],[7.04474536,49.25505821,316.4485342843192],[7.0447831,49.2550157,317.29333060128346],[7.04480774,49.25496453,317.76965767996654],[7.04482474,49.25491888,318.34556797572543],[7.04482141,49.25486351,318.8108215332031],[7.04481339,49.25481448,318.6876874651228],[7.04481481,49.2547597,317.9623456682478],[7.04480424,49.25471139,316.9347229003906],[7.04478588,49.25465784,315.76695033482144],[7.04475997,49.25460249,314.6620570591518],[7.04471289,49.25455529,313.6754063197545],[7.04466092,49.2545124,312.498543875558],[7.04463069,49.25445982,311.495596749442],[7.04460496,49.25441588,310.62281581333707],[7.04457802,49.25437148,309.7472621372768],[7.04454043,49.25432124,309.4228079659598],[7.04451404,49.25427206,309.3032924107143],[7.04445384,49.25424762,309.2511247907366],[7.04438785,49.25426588,309.3890293666295],[7.04431403,49.25427802,309.5981140136719],[7.04425838,49.25430632,309.9515598842076],[7.04425392,49.25423029,310.25643048967635],[7.04424766,49.25417071,310.76737322126115],[7.04427844,49.25411989,311.299072265625],[7.04429452,49.25407241,311.8334001813616],[7.04427428,49.25402428,312.4849286760603],[7.04427703,49.25397399,313.2361319405692],[7.04426521,49.25392187,313.8693193708147],[7.04421429,49.2538609,314.45408848353793],[7.04416469,49.25381307,314.6045139857701],[7.0441275,49.2537713,314.6194065638951],[7.04409442,49.25371701,314.6173313685826],[7.04405986,49.25364931,314.5739092145647],[7.04403165,49.25359318,314.4851335797991],[7.0439996,49.2535449,314.42822701590404],[7.04397935,49.25349725,314.37662615094865],[7.04396204,49.25344865,314.1698303222656],[7.04393301,49.25340639,313.91469029017856],[7.04389087,49.2533575,313.890633719308],[7.04384585,49.2533006,314.13077218191967],[7.04380569,49.25326276,314.4798845563616],[7.04376873,49.25321722,314.8108912876674],[7.04376302,49.25316961,315.21325247628346],[7.04383978,49.25313346,315.6599775041853],[7.04391168,49.25312092,316.13145664760043],[7.04378951,49.25312574,316.6002938406808],[7.04368576,49.25311835,316.9264918736049],[7.04360652,49.25309986,317.36476353236606],[7.04354056,49.25308082,317.627450125558],[7.04346762,49.2530498,317.92520577566967],[7.04339236,49.25302302,318.1383623395647],[7.04336715,49.25298003,318.4569309779576],[7.04333552,49.25293618,318.3945007324219],[7.04329769,49.25289286,318.0722874232701],[7.04325714,49.25284967,317.63891165597096],[7.04319658,49.25282752,317.3167986188616],[7.04313518,49.25279489,317.0781903948103],[7.04310039,49.25275003,317.0435485839844],[7.04301838,49.25272506,317.13443865094865],[7.04296433,49.25268825,317.1921168736049],[7.0428977,49.2526706,317.32421875],[7.0428191,49.25265253,317.4282793317522],[7.04277238,49.25261736,317.6514630998884],[7.04272424,49.2525701,317.9963596888951],[7.04268814,49.2525117,318.4648960658482],[7.04268199,49.25245227,318.7633056640625],[7.04267151,49.25240582,319.1320234026228],[7.04266188,49.25235598,319.6647295270647],[7.04260972,49.25230493,320.2356610979353],[7.04253886,49.2522708,320.8497576032366],[7.0424684,49.2522469,321.3854021344866],[7.04238399,49.25225028,321.74603271484375],[7.04231205,49.25224268,322.1794695172991],[7.04224258,49.25221106,322.6414882114955],[7.0421837,49.25218336,323.01674107142856],[7.04210208,49.25216346,323.44669015066967],[7.04202465,49.25214947,323.96425083705356],[7.04197321,49.25211629,324.3279724121094],[7.04190517,49.2520986,324.6314392089844],[7.04183684,49.25208019,325.06251307896207],[7.04176531,49.25206593,325.4903782435826],[7.04170893,49.25203146,325.7775399344308],[7.04165557,49.25199628,325.7460196358817],[7.04159399,49.2519665,325.67823573521207],[7.04153068,49.25193434,325.39822823660717],[7.04146775,49.25191113,325.1709420340402],[7.04140076,49.25189656,324.87310791015625],[7.04131927,49.25188513,324.57467215401783],[7.04123397,49.25189176,324.2913251604353],[7.04116481,49.25189014,323.88122994559154],[7.04109817,49.25187822,323.4653625488281],[7.04102946,49.25186231,323.18113926478793],[7.04096071,49.25184789,322.93775721958707],[7.04087605,49.25182605,322.6590358189174],[7.04080141,49.25181653,322.4253888811384],[7.0407299,49.25180956,322.3632071358817],[7.04064265,49.25178345,322.5813991001674],[7.0405782,49.25175725,322.80645751953125],[7.0405139,49.25173635,322.8720267159598],[7.04045233,49.25171603,322.9529070172991],[7.04037679,49.25170346,322.8264683314732],[7.04028582,49.25169749,322.5470450265067],[7.04021041,49.25168252,322.30086408342635],[7.04014194,49.25167394,322.1034894670759],[7.04001866,49.25161231,321.76504952566967],[7.03993429,49.25162415,321.3738010951451],[7.03986139,49.25163446,320.81502423967635],[7.03977217,49.25162645,320.22000994001115],[7.03970225,49.25161273,319.6451503208705],[7.03963759,49.25159501,318.8979710170201],[7.03956814,49.25156132,318.0197012765067],[7.0395047,49.25153403,317.0864955357143],[7.0394393,49.2515038,316.4770769391741],[7.03937452,49.2514722,315.8525870186942],[7.03928739,49.25144025,315.3260716029576],[7.03919521,49.25140864,314.9461146763393],[7.03913757,49.25137674,314.53194754464283],[7.0390817,49.25133513,314.04456874302457],[7.03901988,49.25131143,313.5869358607701],[7.03894468,49.25127917,313.259024483817],[7.03888006,49.2512533,313.03592354910717],[7.03881873,49.25121773,312.791748046875],[7.03877202,49.25117442,312.5496172223772],[7.03872115,49.25113643,312.2687683105469],[7.03867652,49.25109688,312.17569841657365],[7.03862065,49.25106643,312.01151384626115],[7.03856271,49.25102281,311.8489074707031],[7.03849918,49.2509994,311.6063755580357],[7.03843036,49.25098382,311.3799089704241],[7.03836109,49.25096658,311.1611589704241],[7.03829035,49.25095078,311.08914620535717],[7.03821335,49.25094305,311.05535888671875],[7.03813588,49.2509286,311.114510672433],[7.03806542,49.25091478,311.04085431780135],[7.0379964,49.25090972,310.9972229003906],[7.03791948,49.25090489,310.98965890066967],[7.03784381,49.25089629,311.04564121791293],[7.0377675,49.25088779,311.17806134905135],[7.03769835,49.25088317,311.3281991141183],[7.03761859,49.25087051,311.61815970284596],[7.03753702,49.2508648,311.9620448521205],[7.03745312,49.25085236,312.421377999442],[7.03738464,49.2508373,312.96632603236606],[7.03731361,49.25082715,313.5223127092634],[7.03723723,49.25082916,314.10287039620533],[7.03714843,49.25084003,314.7008361816406],[7.03707696,49.25084799,315.2393057686942],[7.03700255,49.25084673,315.8402622767857],[7.03692638,49.25084825,316.43859427315846],[7.0368525,49.25085277,316.9408743722098],[7.03678003,49.25085656,317.30525861467635],[7.03670662,49.25086715,317.5187421526228],[7.03663265,49.25087571,317.6784362792969],[7.03655604,49.25087687,317.88964407784596],[7.03648662,49.25087432,318.01096888950894],[7.03641616,49.25087613,318.156014578683],[7.03633491,49.25088704,318.1336582728795],[7.03625892,49.25090321,317.97483607700894],[7.03619056,49.25091192,317.6205531529018],[7.0361207,49.25090167,317.3118591308594],[7.03605167,49.25088498,317.0583714076451],[7.03596532,49.25086799,316.69529942103793],[7.03588739,49.25086434,316.34158761160717],[7.03580767,49.25085418,316.0316816057478],[7.03573227,49.25083962,315.7933785574777],[7.03565373,49.25081742,315.68629673549106],[7.03557966,49.25080003,315.4825439453125],[7.03550378,49.25077121,315.17227608816967],[7.03542627,49.25074715,314.834463936942],[7.03533992,49.25072804,314.53492149939905],[7.03526841,49.25070942,314.3169250488281],[7.0352037,49.25068532,314.26326127485794],[7.03514167,49.25066114,314.3347534179687],[7.03508515,49.25063446,314.3260904947917],[7.03500831,49.25060739,314.237060546875],[7.03494649,49.25057771,314.24398367745533]]}}]}
